{
  "type": "FeatureCollection",
  "features": [
    {
      "type": "Feature",
      "geometry": {
        "type": "Point",
        "coordinates": [
          2.196134,
          44.964438
        ]
      },
      "properties": {
        "name": "Camping municipal Le Pré des Bains",
        "description": "Au cœur de l’Auvergne, le camping de Laroquebrou est en bordure de rivière, la Cère, dans un environnement calme et verdoyant."
      }
    },
    {
      "type": "Feature",
      "geometry": {
        "type": "Point",
        "coordinates": [
          2.260406,
          44.681908
        ]
      },
      "properties": {
        "name": "Camping Moulin de Chaules",
        "description": "Camping situé aux portes de 3 départements plein d'attraits, le Cantal, le Lot et l'Aveyron."
      }
    },
    {
      "type": "Feature",
      "geometry": {
        "type": "Point",
        "coordinates": [
          2.3589,
          44.71
        ]
      },
      "properties": {
        "name": "Aire naturelle Les Érables",
        "description": "Aire naturelle, ombragée et calme. Accès gratuit à la baignade communale surveillée par un maître-nageur sauveteur."
      }
    },
    {
      "type": "Feature",
      "geometry": {
        "type": "Point",
        "coordinates": [
          2.206736,
          44.706094
        ]
      },
      "properties": {
        "name": "Camping municipal Le Vert",
        "description": "Le Camping municipal Le Vert,  labellisé « Camping de Mon Village » accueille le visiteur au cœur de la Châtaigneraie Cantalienne, au sein d'une nature préservée propice à la détente dans un cadre verdoyant."
      }
    },
    {
      "type": "Feature",
      "geometry": {
        "type": "Point",
        "coordinates": [
          2.5069,
          44.701
        ]
      },
      "properties": {
        "name": "Camping municipal La Grangeotte",
        "description": "Montsalvy, Petite Cité de Caractère® vous accueille dans son camping avec piscine gratuite pour les campeurs."
      }
    },
    {
      "type": "Feature",
      "geometry": {
        "type": "Point",
        "coordinates": [
          2.3669,
          44.643
        ]
      },
      "properties": {
        "name": "Camping Coursavy",
        "description": "Le camping de Coursavy se trouve à l'extrême sud de l'Auvergne, au bord de la rivière Lot."
      }
    },
    {
      "type": "Feature",
      "geometry": {
        "type": "Point",
        "coordinates": [
          2.253773,
          44.779156
        ]
      },
      "properties": {
        "name": "Camping municipal Le Moulègre",
        "description": "Camping situé dans le joli village de Boisset, à proximité du ruisseau le Moulègre."
      }
    },
    {
      "type": "Feature",
      "geometry": {
        "type": "Point",
        "coordinates": [
          2.353617,
          44.780654
        ]
      },
      "properties": {
        "name": "Camping municipal L'Étang aux Hirondelles",
        "description": "Situé en lisière du village, vous bénéficierez d'une situation privilégiée pour découvrir toutes les richesses patrimoniales du village médiéval de Marcolès  classé Petite Cité de Caractère et Plus Beau Village de France."
      }
    },
    {
      "type": "Feature",
      "geometry": {
        "type": "Point",
        "coordinates": [
          2.309709,
          44.85345
        ]
      },
      "properties": {
        "name": "Camping municipal Les Parrines",
        "description": "Le site champêtre du camping de Saint-Mamet-la-Salvetat vous séduira pour des séjours paisibles au grand air."
      }
    },
    {
      "type": "Feature",
      "geometry": {
        "type": "Point",
        "coordinates": [
          2.237181,
          44.889252
        ]
      },
      "properties": {
        "name": "Camping de la Ferme de Viescamp",
        "description": "Camping à la Ferme *** de 18 emplacements avec sanitaires privés. Toujours l'ambiance du petit camping à la ferme mais avec du confort !!!"
      }
    },
    {
      "type": "Feature",
      "geometry": {
        "type": "Point",
        "coordinates": [
          2.230739,
          44.935413
        ]
      },
      "properties": {
        "name": "Camping Les Rives du Lac",
        "description": "Le camping Les Rives du Lac vous accueille au bord du lac de Saint-Étienne-Cantalès. Il est situé au sud de l'Auvergne dans le département du Cantal."
      }
    },
    {
      "type": "Feature",
      "geometry": {
        "type": "Point",
        "coordinates": [
          2.215301,
          44.938072
        ]
      },
      "properties": {
        "name": "Domaine La Plage du Garoustel",
        "description": "À la limite du Cantal et du Lot, le Domaine La Plage du Garoustel est idéalement situé à proximité du barrage de Saint-Étienne-Cantalès, dont la mise en eau a créé l’un des plus beaux lacs artificiels de France."
      }
    },
    {
      "type": "Feature",
      "geometry": {
        "type": "Point",
        "coordinates": [
          2.666609,
          45.282015
        ]
      },
      "properties": {
        "name": "Camping / Gîtes Le Sédour",
        "description": "Camping Le Sedour à Riom-ès-Montagnes : Espace tente, aire de service et accueil van et Camping car. Situé dans un cadre paisible, ombragé en bord de rivière et à 300m du centre ville, le camping vous assure un séjour agréable."
      }
    },
    {
      "type": "Feature",
      "geometry": {
        "type": "Point",
        "coordinates": [
          2.708043,
          45.158795
        ]
      },
      "properties": {
        "name": "Camping Les Monts du Cantal",
        "description": "Ce petit havre de paix situé en bordure de rivière avec un joli panorama montagne vous accueille dans un cadre paisible et verdoyant, aux portes du Puy Mary et des Monts du Cantal."
      }
    },
    {
      "type": "Feature",
      "geometry": {
        "type": "Point",
        "coordinates": [
          2.71841,
          45.20975
        ]
      },
      "properties": {
        "name": "Camping Municipal La Biaugue",
        "description": "Camping semi-ombragé avec vue sur la vallée de Cheylade, au départ de nombreuses randonnées pédestre."
      }
    },
    {
      "type": "Feature",
      "geometry": {
        "type": "Point",
        "coordinates": [
          2.538011,
          45.253367
        ]
      },
      "properties": {
        "name": "Camping OnlyCamp Le Pioulat",
        "description": "Charmant camping au bord du plan d'eau de Trizac"
      }
    },
    {
      "type": "Feature",
      "geometry": {
        "type": "Point",
        "coordinates": [
          2.692952,
          45.246602
        ]
      },
      "properties": {
        "name": "Camping Municipal d'Apchon",
        "description": "Camping municipal au pied de l'ancien château, situé près de la route touristique du Puy Mary."
      }
    },
    {
      "type": "Feature",
      "geometry": {
        "type": "Point",
        "coordinates": [
          2.423244,
          45.116178
        ]
      },
      "properties": {
        "name": "Camping Le Moulin du Teinturier",
        "description": "88 emplacements sur 5,5 ha - Terrain familial, calme, emplacements spacieux et délimités - Borne camping-cars - emplacements caravanes - Bâtiments sanitaires - possibilité emplacements avec branchement électrique."
      }
    },
    {
      "type": "Feature",
      "geometry": {
        "type": "Point",
        "coordinates": [
          2.500007,
          45.113268
        ]
      },
      "properties": {
        "name": "Camping la Pierre Plate",
        "description": "Camping 30 emplacements sur terrain ombragé à proximité du bourg."
      }
    },
    {
      "type": "Feature",
      "geometry": {
        "type": "Point",
        "coordinates": [
          2.620009,
          45.153225
        ]
      },
      "properties": {
        "name": "Aire naturelle le Chambon",
        "description": "Aire naturelle de camping située en bord de rivière, en fond de vallée. Calme, espace environnement paysages montagneux."
      }
    },
    {
      "type": "Feature",
      "geometry": {
        "type": "Point",
        "coordinates": [
          2.25857,
          45.071812
        ]
      },
      "properties": {
        "name": "Camping Pont du Rouffet",
        "description": "Petit camping convivial sans animation, qui se trouve au milieu de la nature et au bord d'un grand lac dans le Cantal.\r\nIdéal pour les amoureux de la randonnée, la baignade, le vélo, le canoë, la pêche, la tranquillité."
      }
    },
    {
      "type": "Feature",
      "geometry": {
        "type": "Point",
        "coordinates": [
          2.593406,
          45.100383
        ]
      },
      "properties": {
        "name": "Domaine du Lissart de Miège",
        "description": "Situé à 939 mètres d'altitude sur la commune du Fau nichée au coeur même d'une des plus belles vallées du Cantal, le Camping Lissart de Miège vous accueille dans le Parc Régional des Volcans d'Auvergne, au coeur du Grand Site du Puy Mary."
      }
    },
    {
      "type": "Feature",
      "geometry": {
        "type": "Point",
        "coordinates": [
          2.439716,
          45.201741
        ]
      },
      "properties": {
        "name": "Aire naturelle les Fraux",
        "description": "Situé à 820 m d'altitude, à mi-chemin entre Mauriac et Salers, l'aire naturelle «Les Fraux» propose 25 emplacements."
      }
    },
    {
      "type": "Feature",
      "geometry": {
        "type": "Point",
        "coordinates": [
          2.498424,
          45.147624
        ]
      },
      "properties": {
        "name": "Camping le Mouriol",
        "description": "Le camping vous accueille sur un terrain familial, de 80 emplacements délimités sur 2ha, ombragé et calme."
      }
    },
    {
      "type": "Feature",
      "geometry": {
        "type": "Point",
        "coordinates": [
          2.223036,
          45.136933
        ]
      },
      "properties": {
        "name": "L'Echappée Verte",
        "description": "51 emplacements sur 1,7 ha - Terrain ombragé à proximité du bourg et des équipements de loisirs."
      }
    },
    {
      "type": "Feature",
      "geometry": {
        "type": "Point",
        "coordinates": [
          2.51051,
          45.451912
        ]
      },
      "properties": {
        "name": "Camping L'Air du Temps",
        "description": "Situé au cœur du Parc naturel régional des Volcans d’Auvergne ce camping de charme avec vue panoramique sur le lac de Bort-les-Orgues et les Monts du Cantal, est calme et sans animations. Niché en pleine nature, il se distingue par son cadre exceptionnel."
      }
    },
    {
      "type": "Feature",
      "geometry": {
        "type": "Point",
        "coordinates": [
          2.405871,
          45.363137
        ]
      },
      "properties": {
        "name": "Les Chalets du camping de Béringer",
        "description": "Dans le Nord Cantal, situés à 1 km du bourg, 3 chalets d'une capacité de 5 personnes, entièrement équipés vous attendent pour un séjour de détente, de stages sportifs, de découverte, pour des vacances, réunions familiales ou entre amis."
      }
    },
    {
      "type": "Feature",
      "geometry": {
        "type": "Point",
        "coordinates": [
          2.583574,
          45.367274
        ]
      },
      "properties": {
        "name": "Camping de l'Écureuil",
        "description": "Au cœur de la nature sauvage et des prairies verdoyantes du haut cantal, venez découvrir notre camping « nature » et son jardin animalier. Vous y trouverez le calme, la qualité d’accueil et la convivialité."
      }
    },
    {
      "type": "Feature",
      "geometry": {
        "type": "Point",
        "coordinates": [
          2.603435,
          45.394133
        ]
      },
      "properties": {
        "name": "Camping de l'Étang",
        "description": "Camping  au cœur de l'Artense dans un site paradisiaque, calme en pleine nature. Le camping se situe sur un terrain de 5 hectares."
      }
    },
    {
      "type": "Feature",
      "geometry": {
        "type": "Point",
        "coordinates": [
          2.548934,
          45.390793
        ]
      },
      "properties": {
        "name": "Camping municipal de La Tarentaine",
        "description": "Dans le Parc naturel régional des Volcans d’Auvergne, le camping de la Tarentaine est un havre de paix où de nombreuses activités sont proposées. Endroit idéal pour se reposer mais aussi découvrir, manger, marcher, se baigner, pédaler, flâner, rencontrer…"
      }
    },
    {
      "type": "Feature",
      "geometry": {
        "type": "Point",
        "coordinates": [
          2.503779,
          45.430308
        ]
      },
      "properties": {
        "name": "Camping Huttopia Lac de la Siauve",
        "description": "Situé au cœur de l'Auvergne, le camping Huttopia Lac de la Siauve offre un cadre naturel paisible avec une vue panoramique sur le lac de Bort-les-Orgues. Les vastes espaces et la piscine chauffée vous attendent après de belles randonnées dans la région."
      }
    },
    {
      "type": "Feature",
      "geometry": {
        "type": "Point",
        "coordinates": [
          2.473823,
          45.336875
        ]
      },
      "properties": {
        "name": "Camping municipal de Bellevue",
        "description": "Emplacements délimités sur un terrain plat et ombragé, à proximité d'équipements de loisirs : piscine, tennis , terrain de pétanque, jeux pour enfants."
      }
    },
    {
      "type": "Feature",
      "geometry": {
        "type": "Point",
        "coordinates": [
          2.390345,
          45.391621
        ]
      },
      "properties": {
        "name": "Camping municipal Les Pagues",
        "description": "Découvrir le charme de la campagne et la beauté des gorges de la Dordogne. Passionnés de nature, des emplacements traditionnels ou des locations de mobil-homes vous y attendent."
      }
    },
    {
      "type": "Feature",
      "geometry": {
        "type": "Point",
        "coordinates": [
          2.666201,
          45.403874
        ]
      },
      "properties": {
        "name": "Camping municipal Les Bruyères",
        "description": "Situé au cœur d'un site naturel de 5ha, à proximité des lacs de Lastioulles et de La Crégut. Emplacements non délimités avec ou sans ombrage, branchements électriques, lave et sèche linge collectifs, jeux pour enfants, ping-pong, calme et détente assurée."
      }
    },
    {
      "type": "Feature",
      "geometry": {
        "type": "Point",
        "coordinates": [
          2.499352,
          45.363068
        ]
      },
      "properties": {
        "name": "Camping Ferme de séjour",
        "description": "Venez découvrir notre camping familial sur un terrain aménagé et délimité. Des vacances en pleine nature, au vert, en profitant de la piscine, jeux pour les enfants."
      }
    },
    {
      "type": "Feature",
      "geometry": {
        "type": "Point",
        "coordinates": [
          2.670305,
          45.01361
        ]
      },
      "properties": {
        "name": "Camping la Bédisse",
        "description": "En famille, posez vos valises en tente, tipi ou chalet au bord de la rivière qui traverse le camping de la Bédisse à Thiézac, et profitez pleinement de l’accueil familial et chaleureux que vous réservent Audrey et Aymeri."
      }
    },
    {
      "type": "Feature",
      "geometry": {
        "type": "Point",
        "coordinates": [
          2.713564,
          45.052548
        ]
      },
      "properties": {
        "name": "Camping des Blats",
        "description": "Fabrice, Angélique et leurs 3 enfants seront ravis de vous accueillir dans leur camping qui longe la rivière Cère, à 7 kms du Lioran ; camping familial et convivial, respectueux de la nature, idéal pour se ressourcer au calme."
      }
    },
    {
      "type": "Feature",
      "geometry": {
        "type": "Point",
        "coordinates": [
          2.610798,
          44.872294
        ]
      },
      "properties": {
        "name": "La Sapinière",
        "description": "Bloc sanitaire, espace jeux, salle."
      }
    },
    {
      "type": "Feature",
      "geometry": {
        "type": "Point",
        "coordinates": [
          2.629219,
          44.981215
        ]
      },
      "properties": {
        "name": "Camping Vic Nature**",
        "description": "Venez vous ressourcer dans ce magnifique parc arboré en bordure de rivière à proximité des Monts du Cantal. Lieu idéal pour des vacances à l'état pur! Entre amis, en famille ou en couple vous goûterez aux plaisirs de la montagne."
      }
    },
    {
      "type": "Feature",
      "geometry": {
        "type": "Point",
        "coordinates": [
          2.641534,
          44.985867
        ]
      },
      "properties": {
        "name": "G.C.U",
        "description": "Camping GCU à Vic sur Cère"
      }
    },
    {
      "type": "Feature",
      "geometry": {
        "type": "Point",
        "coordinates": [
          2.677168,
          45.029507
        ]
      },
      "properties": {
        "name": "Le Clou",
        "description": "Situé sur le GR400 à 6 KM du village de Thiezac, le CLOU vous propose un petit camping avec une vue magnifique sur les monts du Cantal et la vallée de la Cère."
      }
    },
    {
      "type": "Feature",
      "geometry": {
        "type": "Point",
        "coordinates": [
          2.632996,
          44.971212
        ]
      },
      "properties": {
        "name": "La Pommeraie",
        "description": "Déposez vos valises à la Pommeraie et vous passerez un séjour magique en toute simplicité. Pour des vacances riches en découvertes et  en activités, la Pommeraie sera votre destination idéale."
      }
    },
    {
      "type": "Feature",
      "geometry": {
        "type": "Point",
        "coordinates": [
          2.587345,
          44.948034
        ]
      },
      "properties": {
        "name": "Camping du Val de Cère",
        "description": "Le Camping du Val de Cère vous donne les clés d’un séjour en famille, avec des équipements de loisirs pour petits et grands (piscine, terrain de tennis…) sur un terrain plat et ombragé de 2,5 ha en bord de rivière et à proximité de toute les commodités. "
      }
    },
    {
      "type": "Feature",
      "geometry": {
        "type": "Point",
        "coordinates": [
          2.662764,
          45.015703
        ]
      },
      "properties": {
        "name": "La Sapinière- Aire de Camping Car",
        "description": "Aire de services et de stationnement. Stationnement gratuit, jetons en vente au tarif de 2 € à l'épicerie Coccinelle - Lauzet (pour le plein d'eau ou 1h d'électricité)"
      }
    },
    {
      "type": "Feature",
      "geometry": {
        "type": "Point",
        "coordinates": [
          3.121346,
          45.267814
        ]
      },
      "properties": {
        "name": "Camping municipal de la Sianne",
        "description": "Camping municipal situé dans la vallée de la Sianne, au bord de la rivière avec un terrain semi-ombragé de 0,76 ha. 28 emplacements dont 18 emplacements pour caravanes et camping-cars."
      }
    },
    {
      "type": "Feature",
      "geometry": {
        "type": "Point",
        "coordinates": [
          3.21894,
          44.999069
        ]
      },
      "properties": {
        "name": "Le Petit Bois camping",
        "description": "A 6 km de l'A 75, sortie 30, emplacements de camping et locations à 500 m du centre-village de Ruynes en Margeride avec vue imprenable sur les Monts du Cantal et la Margeride.\r\n68 emplacements et 28 chalets ou cabanes."
      }
    },
    {
      "type": "Feature",
      "geometry": {
        "type": "Point",
        "coordinates": [
          3.082781,
          45.033168
        ]
      },
      "properties": {
        "name": "Camping de mon Village - Camping** Car Park Les Orgues",
        "description": "Un camping idéalement situé à quelques pas du centre historique tout en étant au calme. A proximité des commerces (5 mn à pied)  et du Centre aqualudique intercommunal. Un camp de base idéal pour découvrir Saint-Flour et le Cantal."
      }
    },
    {
      "type": "Feature",
      "geometry": {
        "type": "Point",
        "coordinates": [
          3.109574,
          45.276058
        ]
      },
      "properties": {
        "name": "Camping municipal de Laurie",
        "description": "A la croisée des départements du Cantal, du Puy de Dôme et de la Haute-Loire, dans un cadre de verdure préservée, le camping municipal de Laurie offre un cadre presque sauvage."
      }
    },
    {
      "type": "Feature",
      "geometry": {
        "type": "Point",
        "coordinates": [
          3.20944,
          44.889741
        ]
      },
      "properties": {
        "name": "Camping de Saint-Just - Only Camp",
        "description": "Dans son écrin de verdure, le camping de part et d'autre de son petit ruisseau, assure calme et repos dans le village tout en granite de Saint-Just.\r\n48 emplacements avec 6 mobil-homes et 5 chalets (chalets hors camping). Piscine en haute saison."
      }
    },
    {
      "type": "Feature",
      "geometry": {
        "type": "Point",
        "coordinates": [
          2.804719,
          44.921658
        ]
      },
      "properties": {
        "name": "Camping municipal de Saint-Martin-sous-Vigouroux",
        "description": "Camping au bord du ruisseau du Brezons dans la Vallée de Brezons, une des plus belles vallées glaciaires en auge d'Europe."
      }
    },
    {
      "type": "Feature",
      "geometry": {
        "type": "Point",
        "coordinates": [
          3.146773,
          44.938667
        ]
      },
      "properties": {
        "name": "Camping municipal de Faverolles",
        "description": "Petit camping dans le charmant village de Faverolles, à 5 minutes du lac de Garabit-Grandval. Dans le village : restaurant / bar, épicerie avec dépôt de pain. \r\n4 emplacements - 4 douches – 4 WC. \r\n5 emplacements à louer sur herbe - douche - WC."
      }
    },
    {
      "type": "Feature",
      "geometry": {
        "type": "Point",
        "coordinates": [
          3.04832,
          45.046875
        ]
      },
      "properties": {
        "name": "Ferme Le Ruisselet",
        "description": "Aux portes de Saint-Flour, à 10 mn de l’A75, le Ruisselet est une ferme vouée à l’accueil depuis 1976."
      }
    },
    {
      "type": "Feature",
      "geometry": {
        "type": "Point",
        "coordinates": [
          3.192425,
          45.248485
        ]
      },
      "properties": {
        "name": "Camping \"mon village de Massiac\"",
        "description": "Près de l’autoroute A75 à Massiac, labellisé Village étape, situé entre les Monts du Cantal et le Massif du Cézallier. Camping calme et ombragé au bord de la rivière Alagnon idéal pour les pêcheurs. Aire d'accueil pour camping-cars (49 places)."
      }
    },
    {
      "type": "Feature",
      "geometry": {
        "type": "Point",
        "coordinates": [
          3.000179,
          44.845007
        ]
      },
      "properties": {
        "name": "Camping du Couffour",
        "description": "Situé à 2 km de Chaudes-Aigues (direction Rodez) sur le site privilégié du Château du Couffour, un camping pour les campeurs, simple et nature."
      }
    },
    {
      "type": "Feature",
      "geometry": {
        "type": "Point",
        "coordinates": [
          2.999138,
          44.687977
        ]
      },
      "properties": {
        "name": "Domaine de l'Ours*** - En Aubrac",
        "description": "A 23 km de Chaudes-Aigues. Dans un cadre verdoyant, le camping de Saint-\r\nUrcize essaime une succession de terrasses naturelles face au village."
      }
    },
    {
      "type": "Feature",
      "geometry": {
        "type": "Point",
        "coordinates": [
          3.085798,
          44.902126
        ]
      },
      "properties": {
        "name": "Camping les Prés Verts",
        "description": "14 emplacements. Camping situé à 13 km de Chaudes-Aigues."
      }
    },
    {
      "type": "Feature",
      "geometry": {
        "type": "Point",
        "coordinates": [
          3.00122,
          44.896005
        ]
      },
      "properties": {
        "name": "Flower Camping Le Belvédère",
        "description": "Camping location chalets, mobil-homes et tentes, au cœur de la nature, avec vue panoramique sur les Gorges de la Truyère et son lac."
      }
    },
    {
      "type": "Feature",
      "geometry": {
        "type": "Point",
        "coordinates": [
          2.623406,
          45.058734
        ]
      },
      "properties": {
        "name": "Camping à la ferme Le Perruchet",
        "description": "Situé au coeur du pays des volcans d'Auvergne, c'est à une altitude d'environ 900 mètres que le Camping à la ferme du Perruchet vous accueille dans la Vallée de la Jordanne."
      }
    },
    {
      "type": "Feature",
      "geometry": {
        "type": "Point",
        "coordinates": [
          2.419503,
          44.992241
        ]
      },
      "properties": {
        "name": "Camping du Moulin",
        "description": "Pour un agréable séjour en famille, le camping du Moulin vous accueille au cœur de la Vallée de l’Authre, vallée des poètes."
      }
    },
    {
      "type": "Feature",
      "geometry": {
        "type": "Point",
        "coordinates": [
          2.654228,
          45.066731
        ]
      },
      "properties": {
        "name": "Camping du Puy Mary",
        "description": "Venez camper au pied du Puy Mary au cœur du Massif Cantalien et le Parc Naturel Régional des Volcans d'Auvergne."
      }
    },
    {
      "type": "Feature",
      "geometry": {
        "type": "Point",
        "coordinates": [
          2.46141,
          44.899021
        ]
      },
      "properties": {
        "name": "Camping de la Cère",
        "description": "A proximité immédiate d'Aurillac."
      }
    },
    {
      "type": "Feature",
      "geometry": {
        "type": "Point",
        "coordinates": [
          2.456754,
          44.935155
        ]
      },
      "properties": {
        "name": "Camping de l'Ombrade",
        "description": "Au cœur d’un écrin de verdure très arboré à 10 minutes à pied du centre historique, le camping de l’Ombrade vous propose calme et détente au cœur de la ville."
      }
    },
    {
      "type": "Feature",
      "geometry": {
        "type": "Point",
        "coordinates": [
          2.247083,
          44.912808
        ]
      },
      "properties": {
        "name": "Camping la Presqu'île du Puech des Ouilhes",
        "description": "Camping situé sur une presqu'île, surplombant le lac du Barrage de Saint-Etienne Cantalès, sous une pinède de pins sylvestres et de différentes essences d'arbres ; lieu idéal pour la pêche et la baignade."
      }
    },
    {
      "type": "Feature",
      "geometry": {
        "type": "Point",
        "coordinates": [
          2.57668,
          45.031378
        ]
      },
      "properties": {
        "name": "Camping des Milans",
        "description": "Le camping des Milans ouvert toute l’année est situé à Saint-Cirgues de Jordanne au cœur des montagnes du Cantal et à proximité des Gorges de la Jordanne."
      }
    },
    {
      "type": "Feature",
      "geometry": {
        "type": "Point",
        "coordinates": [
          2.811536,
          45.116987
        ]
      },
      "properties": {
        "name": "Camping le Vallagnon",
        "description": "La camping est situé à 980M dans un site agréable, dans la vallée de l'Alagnon.\r\nVaste et semi-ombragé , les commerces de proximités et la piscine municipale le jouxte directement ouverte juillet et aout, nous vous offrons l'entrée."
      }
    },
    {
      "type": "Feature",
      "geometry": {
        "type": "Point",
        "coordinates": [
          2.347169,
          45.254679
        ]
      },
      "properties": {
        "name": "Camping de Lavaurs",
        "description": "Au bord de son étang, découvrez le camping de Lavaurs ombragé et calme de 12 emplacements, 5 mini chalets."
      }
    },
    {
      "type": "Feature",
      "geometry": {
        "type": "Point",
        "coordinates": [
          2.472782,
          45.237426
        ]
      },
      "properties": {
        "name": "Aire naturelle",
        "description": "Aire naturelle de 30 emplacements, situé à l’entrée du charmant village de Moussages à 1 km du bourg. Branchement eau et électricité, bloc sanitaire (douches - wc), emplacements camping-car. Commerces de 1ère nécessité à 1 km."
      }
    },
    {
      "type": "Feature",
      "geometry": {
        "type": "Point",
        "coordinates": [
          2.315755,
          45.218717
        ]
      },
      "properties": {
        "name": "Espace de tourisme du Val Saint ****",
        "description": "L’espace de tourisme Val Saint-Jean bénéficie d’une situation privilégiée à 1 km du centre-ville et offre un cadre exceptionnel de verdure en parfaite harmonie avec la nature et vue sur le lac."
      }
    },
    {
      "type": "Feature",
      "geometry": {
        "type": "Point",
        "coordinates": [
          2.829816,
          45.079411
        ]
      },
      "properties": {
        "name": "Camping municipal du Tir",
        "description": "Camping ombragé en bordure de ruisseau, à 200 mètres du centre du village, au départ d'un vaste réseau d'itinéraires de randonnées balisées."
      }
    },
    {
      "type": "Feature",
      "geometry": {
        "type": "Point",
        "coordinates": [
          2.834719,
          45.073111
        ]
      },
      "properties": {
        "name": "Camping à la ferme - Les Trois Pierres",
        "description": "Camping calme et ombragé situé dans le petit village d'Albepierre. \r\nPossibilité de location de mobil homes. Appentis couvert avec barbecue.\r\nCamping-cars n'excédant pas 8 m de long autorisés, pas d'aire de vidange."
      }
    },
    {
      "type": "Feature",
      "geometry": {
        "type": "Point",
        "coordinates": [
          2.93441,
          45.154709
        ]
      },
      "properties": {
        "name": "Aire naturelle de camping de Chalinargues",
        "description": "Aire naturelle de camping dans le petit bourg de Chalinargues.\r\n Forêt de la Pinatelle et espace Naturel sensible du Lac du Pêcher à proximité."
      }
    },
    {
      "type": "Feature",
      "geometry": {
        "type": "Point",
        "coordinates": [
          2.966824,
          45.128886
        ]
      },
      "properties": {
        "name": "Camping municipal La Prade",
        "description": "Niché dans un coin de verdure, bordé par une paisible rivière, le camping municipal de la Prade propose des emplacements ombragés, des chalets 4 personnes, des mobil-homes à la location à la semaine ou au week-end. Ouvert toute l'année."
      }
    },
    {
      "type": "Feature",
      "geometry": {
        "type": "Point",
        "coordinates": [
          2.8623,
          45.103085
        ]
      },
      "properties": {
        "name": "Camping municipal Stalapos - Réseau camping-car Park",
        "description": "Le camping est ouvert toute l'année aux camping-cars et en haute saison (mai à septembre) aux caravanes, vans et tentes. Durant la période hivernale, le service de distribution de l'eau est coupé. Camping situé en bordure de rivière."
      }
    },
    {
      "type": "Feature",
      "geometry": {
        "type": "Point",
        "coordinates": [
          2.758637,
          45.333788
        ]
      },
      "properties": {
        "name": "Camping La Borie Basse",
        "description": "Camping calme et ombragé, en bordure de rivière, à proximité de toutes commodités et activités de pleine nature."
      }
    },
    {
      "type": "Feature",
      "geometry": {
        "type": "Point",
        "coordinates": [
          2.939503,
          45.218876
        ]
      },
      "properties": {
        "name": "Camping municipal Les Gentianes",
        "description": "Un coin de nature calme et ombragé, lieu idéal pour un séjour randonnée ou en famille .  87 emplacements sont à votre disposition, 3 mobil homes, 1 gîte de 4 pers + 1 gîte d'étape 12 pers. Commerces à proximité.\r\nGîte d'étape ouvert à l'année."
      }
    },
    {
      "type": "Feature",
      "geometry": {
        "type": "Point",
        "coordinates": [
          2.255395,
          44.905831
        ]
      },
      "properties": {
        "name": "Camping du Viaduc",
        "description": "Camping au bord du lac de Saint-Étienne-Cantalès.\r\nGRAND REPAS CONVIVIAL AU CAMPING SAMEDI 9 MAI à 19h30."
      }
    },
    {
      "type": "Feature",
      "geometry": {
        "type": "Point",
        "coordinates": [
          2.957521,
          44.889111
        ]
      },
      "properties": {
        "name": "Camping naturiste La Taillade",
        "description": "Camping naturiste au coeur des Gorges de la Truyère, dans une exploitation\r\nbiologique de 300 hectares."
      }
    },
    {
      "type": "Feature",
      "geometry": {
        "type": "Point",
        "coordinates": [
          2.387528,
          45.297515
        ]
      },
      "properties": {
        "name": "Camping des 3 rivières",
        "description": "Une aire naturelle sans emplacement délimité. Un havre de paix pour tous ceux qui recherche le calme, le dépaysement et le repos. Un chalet commun pour les sanitaires et des bornes électriques sont à disposition ainsi qu'un mobil-home pour 6."
      }
    },
    {
      "type": "Feature",
      "geometry": {
        "type": "Point",
        "coordinates": [
          2.978555,
          44.924004
        ]
      },
      "properties": {
        "name": "Camping Sérendipité ***",
        "description": "Camping éco-responsable, dog-friendly, calme et à taille humaine, pour vous ressourcer avec une sublime vue sur la vallée.\r\n34 emplacements de camping et 12 locatifs dont 9 cabanes, 1 grand chalet  et 2 Pods insolites."
      }
    },
    {
      "type": "Feature",
      "geometry": {
        "type": "Point",
        "coordinates": [
          3.051779,
          45.221908
        ]
      },
      "properties": {
        "name": "Camping à la Ferme - Les Carlines",
        "description": "Niché sur le plateau du Cézallier, avec vue panoramique sur la vallée de l'Alagnon, ce camping à la ferme classé 1 étoile Gîte de France vous accueille dans un espace naturel préservé. Deux chalets, un mobil-home en location et trois emplacements nus."
      }
    },
    {
      "type": "Feature",
      "geometry": {
        "type": "Point",
        "coordinates": [
          3.049165,
          45.177938
        ]
      },
      "properties": {
        "name": "Camping municipal les Vigeaires",
        "description": "Le Camping de mon Village de Ferrières-Saint-Mary (15) dispose de 66 emplacements électrifiés et des services : vidange, eau, wifi. Des sanitaires sont ouverts du 27/05 au 30/09. L'aire est ouverte toute l'année, 24h/24."
      }
    },
    {
      "type": "Feature",
      "geometry": {
        "type": "Point",
        "coordinates": [
          2.787283,
          45.280718
        ]
      },
      "properties": {
        "name": "Camping La Santoire",
        "description": "Le Camping de la Santoire, classé 3 étoiles, se situe dans le village de Saint Bonnet de Condat et est ouvert toute l'année. Le site comporte 22 emplacements de camping ( environ 80m² / emplacement), une cabane, 4 chalets et 2 mobil-homes."
      }
    },
    {
      "type": "Feature",
      "geometry": {
        "type": "Point",
        "coordinates": [
          2.793903,
          45.383046
        ]
      },
      "properties": {
        "name": "Camping chez de Vergne",
        "description": "Accueil d’une vingtaine de campeurs, dont 2 emplacements pour vans aménagés (chassis max.5m20)."
      }
    },
    {
      "type": "Feature",
      "geometry": {
        "type": "Point",
        "coordinates": [
          2.918399,
          45.113495
        ]
      },
      "properties": {
        "name": "Camping au Moulin de Gaspard",
        "description": "Verger aménagé pour proposer quatre emplacements plats et ombragés pour poser une tente (inaccessibles en voiture), deux emplacements véhicules aménagés et une yourte. Petit bloc sanitaire composé d’une douche, d’un lavabo et d’une toilette sèche."
      }
    },
    {
      "type": "Feature",
      "geometry": {
        "type": "Point",
        "coordinates": [
          2.309943,
          45.075568
        ]
      },
      "properties": {
        "name": "Le moulin des 13 vents",
        "description": "Camping pour 25 personnes à SAINT-MARTIN-CANTALES"
      }
    },
    {
      "type": "Feature",
      "geometry": {
        "type": "Point",
        "coordinates": [
          2.22899,
          44.935703
        ]
      },
      "properties": {
        "name": "Parc résidentiel du Domaine du Lac",
        "description": "Situé au bord du lac de Saint-Étienne-Cantalès, le Parc résidentiel du Domaine du Lac vous propose des mobile homes et des chalets en location sur de grands emplacements (300 m²) avec un accès direct au lac."
      }
    },
    {
      "type": "Feature",
      "geometry": {
        "type": "Point",
        "coordinates": [
          2.526704,
          45.098026
        ]
      },
      "properties": {
        "name": "Camping LA FEINA",
        "description": "Le camping de l’association La Feina s'étend sur plus d'un hectare d’aire naturelle et peut accueillir une vingtaine de personnes sous tentes ou habitats légers. Il est situé à 950m d’altitude."
      }
    },
    {
      "type": "Feature",
      "geometry": {
        "type": "Point",
        "coordinates": [
          3.109155,
          45.051618
        ]
      },
      "properties": {
        "name": "Camping Roche-Murat - CAMPING CAR PARK",
        "description": "Aire de services camping-car et location de chalets. Situé à 1,5 km de la ville basse de Saint-Flour et à 3 km du centre historique, dans un site agréable et arboré avec vue imprenable sur la cité médiévale de Saint-Flour . Pas d'emplacement nu."
      }
    },
    {
      "type": "Feature",
      "geometry": {
        "type": "Point",
        "coordinates": [
          2.611917,
          44.874656
        ]
      },
      "properties": {
        "name": "Aire naturelle de l'auberge de la Sapinière",
        "description": "Aire naturelle, camping-cars bienvenus, accès sanitaires, jeux pour enfants"
      }
    },
    {
      "type": "Feature",
      "geometry": {
        "type": "Point",
        "coordinates": [
          2.942255,
          45.183701
        ]
      },
      "properties": {
        "name": "Camping à la Ferme - Ferme des Gardes",
        "description": "Camping à la ferme :Gaec des gardes, chez Alexandra,JP et Flo. Sur place  : charcuterie, viande bœuf et porc, œufs. Tous les produits viennent de la ferme qui est qualifiée HVE (Haute Valeur Environnementale)."
      }
    }
  ]
}