{
  "type": "FeatureCollection",
  "features": [
    {
      "type": "Feature",
      "geometry": {
        "type": "Point",
        "coordinates": [
          2.447323,
          44.723727
        ]
      },
      "properties": {
        "name": "Auberge La Normandie",
        "description": "Vous pourrez vous détendre et apprécier pleinement les paysages de la Châtaigneraie au sein de cette auberge en plein nature, entourée de pommiers et située à 2 km du bourg de Junhac."
      }
    },
    {
      "type": "Feature",
      "geometry": {
        "type": "Point",
        "coordinates": [
          2.329987,
          44.691683
        ]
      },
      "properties": {
        "name": "Auberge de Mourjou",
        "description": "Située à Mourjou, l'Auberge de Mourjou possède une terrasse, un restaurant et un bar."
      }
    },
    {
      "type": "Feature",
      "geometry": {
        "type": "Point",
        "coordinates": [
          2.289877,
          44.718868
        ]
      },
      "properties": {
        "name": "Ferme de séjour de Martory",
        "description": "Appréciez votre séjour à la ferme bio !"
      }
    },
    {
      "type": "Feature",
      "geometry": {
        "type": "Point",
        "coordinates": [
          2.383272,
          44.690116
        ]
      },
      "properties": {
        "name": "Auberge des Voyageurs",
        "description": "5 chambres d'hôtes situées en Châtaigneraie Cantalienne dans un environnement calme."
      }
    },
    {
      "type": "Feature",
      "geometry": {
        "type": "Point",
        "coordinates": [
          2.710619,
          45.15203
        ]
      },
      "properties": {
        "name": "Chambres d'hôtes Lavialle",
        "description": "Chambre d'hôtes et gîte équestre."
      }
    },
    {
      "type": "Feature",
      "geometry": {
        "type": "Point",
        "coordinates": [
          2.717799,
          45.226453
        ]
      },
      "properties": {
        "name": "La Ferme d'Elisariane",
        "description": "Située à 1000m d'altitude (bout de route dans la vallée de Cheylade-Puy-Mary) au coeur de la vallée de Cheylade, au pied du Puy Mary classé Grand Site de France."
      }
    },
    {
      "type": "Feature",
      "geometry": {
        "type": "Point",
        "coordinates": [
          2.694508,
          45.24883
        ]
      },
      "properties": {
        "name": "Chambres d'hôtes Résidence Hauteclair",
        "description": "A l'ombre du château d'Apchon sur la route du Puy-Mary, nous vous proposons un accueil chaleureux et des chambres de tout confort."
      }
    },
    {
      "type": "Feature",
      "geometry": {
        "type": "Point",
        "coordinates": [
          2.692759,
          45.246874
        ]
      },
      "properties": {
        "name": "Chambres d'hôtes L'oustalou",
        "description": "Maison de style Auvergnat située dans le bourg d'Apchon au coeur du Parc Naturel Régional des Volcans d'Auvergne."
      }
    },
    {
      "type": "Feature",
      "geometry": {
        "type": "Point",
        "coordinates": [
          2.740361,
          45.237534
        ]
      },
      "properties": {
        "name": "Chambres d'hôtes du Limon",
        "description": "Chambre d'hôte dans cette grande maison de caractère très accueillante au coeur du Haut Cantal au pied du plateau du Limon."
      }
    },
    {
      "type": "Feature",
      "geometry": {
        "type": "Point",
        "coordinates": [
          2.633199,
          45.240389
        ]
      },
      "properties": {
        "name": "Chambre d'hôtes Ferme d'Espinasse",
        "description": "Ferme traditionnelle de style auvergnat située sur les plateaux d'estives du Cantal. Chambre double pour 2 personnes ou famille avec salle d'eau et WC."
      }
    },
    {
      "type": "Feature",
      "geometry": {
        "type": "Point",
        "coordinates": [
          2.425897,
          45.076555
        ]
      },
      "properties": {
        "name": "Ferme de Lamourio",
        "description": "Au cœur d'une exploitation agricole, élevage race salers, 3 chambres aménagées et spacieuses avec salle d'eau et WC privatifs, situées dans un bâtiment indépendant, face à la maison du propriétaire. Style Auvergnat pierres et poutres apparentes."
      }
    },
    {
      "type": "Feature",
      "geometry": {
        "type": "Point",
        "coordinates": [
          2.437841,
          45.204927
        ]
      },
      "properties": {
        "name": "Les Sorbiers",
        "description": "Les Sorbiers vous accueillent dans une ancienne remise typiquement auvergnate, entièrement rénovée conservant l'architecture locale."
      }
    },
    {
      "type": "Feature",
      "geometry": {
        "type": "Point",
        "coordinates": [
          2.453385,
          45.171725
        ]
      },
      "properties": {
        "name": "La Chambre de Roche",
        "description": "Chambre d'hôtes située au cœur d'une exploitation agricole à 5km de Salers. A l'écart des routes et des habitations, notre chambre vous offre calme et tranquillité pour 2 à 4 personnes."
      }
    },
    {
      "type": "Feature",
      "geometry": {
        "type": "Point",
        "coordinates": [
          2.470636,
          45.132179
        ]
      },
      "properties": {
        "name": "Domaine de la Chaux de Revel Chambre d'hôtes",
        "description": "Aux portes de Salers dans un domaine de 7ha ancienne ferme auvergnate entièrement restaurée - Vue panoramique sur la vallée de la Maronne - Piscine chauffée (fin mai à mi septembre) à 29&#176;C. 3 chambres à thème."
      }
    },
    {
      "type": "Feature",
      "geometry": {
        "type": "Point",
        "coordinates": [
          2.283665,
          45.154706
        ]
      },
      "properties": {
        "name": "La Fournio",
        "description": "Maison typique de Xaintrie entre Dordogne et Monts du Cantal proche de la cité médiévale de Salers."
      }
    },
    {
      "type": "Feature",
      "geometry": {
        "type": "Point",
        "coordinates": [
          2.495677,
          45.138907
        ]
      },
      "properties": {
        "name": "Les Sagranières",
        "description": "Chambres dans maison de caractère au cœur de la cité médiévale proche des commerces et des restaurants. Possibilité organisation de séjour pour groupe avec circuits, itinéraires, restaurants."
      }
    },
    {
      "type": "Feature",
      "geometry": {
        "type": "Point",
        "coordinates": [
          2.28686,
          45.087728
        ]
      },
      "properties": {
        "name": "La Maison de Chablat",
        "description": "La Maison de Chablat se trouve dans un lieu calme, entouré de nature. Dans le jardin, au bord de la piscine, vous pouvez admirer les Monts du Cantal à l'horizon. La maison comprend 4 chambres."
      }
    },
    {
      "type": "Feature",
      "geometry": {
        "type": "Point",
        "coordinates": [
          2.478338,
          45.174969
        ]
      },
      "properties": {
        "name": "Guidon & Fourchette",
        "description": "Faites escale chez « GUIDON & FOURCHETTE ». \r\nDans un corps de ferme de 1776, 2CH (2 lits de 140) et 1 dortoir (6 personnes). Une table d’hôte, un espace pour entretenir vos deux roues."
      }
    },
    {
      "type": "Feature",
      "geometry": {
        "type": "Point",
        "coordinates": [
          2.503108,
          45.11364
        ]
      },
      "properties": {
        "name": "Lou Catou",
        "description": "A 10 minutes de la cité médiévale de Salers, Au cœur d'un village calme et verdoyant, 2 chambres d'hôtes confortables, vous accueillent."
      }
    },
    {
      "type": "Feature",
      "geometry": {
        "type": "Point",
        "coordinates": [
          2.591064,
          45.155116
        ]
      },
      "properties": {
        "name": "Auberge du Col de Néronne",
        "description": "Situé entre Salers et Puy Mary, vue panoramique au sein du parc régional des volcans d'Auvergne. 5 chambres dont 4 avec vue sur le Puy Violent"
      }
    },
    {
      "type": "Feature",
      "geometry": {
        "type": "Point",
        "coordinates": [
          2.575727,
          45.382626
        ]
      },
      "properties": {
        "name": "Chambres et table d'hôtes Croque Lunes",
        "description": "Croque Lunes est une ancienne ferme que nous avons rénovée en 2016 ; elle est située dans un cadre champêtre et ressourçant en bordure de hameau."
      }
    },
    {
      "type": "Feature",
      "geometry": {
        "type": "Point",
        "coordinates": [
          2.557853,
          45.440726
        ]
      },
      "properties": {
        "name": "Chambres d'hôtes Artense Hôtes",
        "description": "Entre les Monts du Cantal, le massif du Sancy et aux portes du Cézallier, Patrice vous accueille dans ses quatre chambres d’hôtes spacieuses. Les chambres sont situées dans une maison mitoyenne à son habitation, au cœur d’un petit hameau paisible."
      }
    },
    {
      "type": "Feature",
      "geometry": {
        "type": "Point",
        "coordinates": [
          2.464175,
          45.302854
        ]
      },
      "properties": {
        "name": "Chambres et table d'hôtes Chez Marraine",
        "description": "Petite route sinueuse et bucolique vous mènera chez Marraine. \r\nUne maison auvergnate de caractère (1872) accueille ses hôtes qui aiment la nature.  Ici c’est la campagne, vous serez entouré de prés, de vaches avec une vue imprenable."
      }
    },
    {
      "type": "Feature",
      "geometry": {
        "type": "Point",
        "coordinates": [
          2.50979,
          45.348793
        ]
      },
      "properties": {
        "name": "Chambres d'hôtes Champassis",
        "description": "Maison indépendante dans petit village à 9km du lac de Lastioulles et du barrage de Bort-les-Orgues. Salle à manger commune avec kitchenette équipée, 4 chambres à disposition, pas de table d'hôtes. Wifi sur demande."
      }
    },
    {
      "type": "Feature",
      "geometry": {
        "type": "Point",
        "coordinates": [
          2.412639,
          45.324996
        ]
      },
      "properties": {
        "name": "Chambres d'hôtes Le Relais des Capucines",
        "description": "Nos chambres sont situées dans une demeure de la fin du XIXème siècle agrémentée d'un parc paysagé d'un hectare. Chaque chambre est équipée d'une salle d'eau et de WC privatifs."
      }
    },
    {
      "type": "Feature",
      "geometry": {
        "type": "Point",
        "coordinates": [
          2.649508,
          44.958269
        ]
      },
      "properties": {
        "name": "Chambres d'hôtes \"le Paradis Vert\"",
        "description": "Chambres d'hôtes"
      }
    },
    {
      "type": "Feature",
      "geometry": {
        "type": "Point",
        "coordinates": [
          2.650044,
          44.873374
        ]
      },
      "properties": {
        "name": "Domaine de Courbelimagne",
        "description": "A Raulhac, locations occasionnelles de Chambres d'Hôtes (selon les préceptes des \"Chambres d'Hôtes chez l'habitant\").\r\n3 chambres ou suites, avec petits déjeuners. Dîners possibles uniquement sur réservation, dans un cadre environnemental de charme.\r\n"
      }
    },
    {
      "type": "Feature",
      "geometry": {
        "type": "Point",
        "coordinates": [
          2.667376,
          45.015461
        ]
      },
      "properties": {
        "name": "La Maison de Jeanne",
        "description": "Convivialité, détente, bien-être sont les mots qui conviennent pour « La Maison de Jeanne ». Au coeur du village, Chrystelle et Hugues vous accueillent dans une grande maison datant du début du XXe siècle baignée par la lumière."
      }
    },
    {
      "type": "Feature",
      "geometry": {
        "type": "Point",
        "coordinates": [
          2.694967,
          44.949903
        ]
      },
      "properties": {
        "name": "La Petite Escale du Pouget",
        "description": "La petite escale du Pouget  est idéale pour se ressourcer  avec son entrée indépendante qui mène directement aux chambres en passant par un petit salon et la salle du petit déjeuner en usage privatif."
      }
    },
    {
      "type": "Feature",
      "geometry": {
        "type": "Point",
        "coordinates": [
          2.611979,
          44.909897
        ]
      },
      "properties": {
        "name": "La Calsade",
        "description": "Demeure entièrement rénovée, située au cœur du Carladès, sur le plateau de Badailhac. Tranquillité, vue panoramique. 2 chambres doubles, 1 chambre avec 1 lit double et 1 lit simple (salle d'eau et wc privatifs)."
      }
    },
    {
      "type": "Feature",
      "geometry": {
        "type": "Point",
        "coordinates": [
          2.630593,
          44.97681
        ]
      },
      "properties": {
        "name": "Kinopanorama",
        "description": "Chambre d'hôtes à Vic sur Cère."
      }
    },
    {
      "type": "Feature",
      "geometry": {
        "type": "Point",
        "coordinates": [
          2.621296,
          44.977777
        ]
      },
      "properties": {
        "name": "Le Terrondou",
        "description": "Cette élégante demeure, bâtie dans les années 30, dans le style néoclassique régional, est située à 300m du centre médiéval de Vic sur Cère, à 15min d'Aurillac et à 15 min de la station du Lioran, au coeur du Parc des Volcans."
      }
    },
    {
      "type": "Feature",
      "geometry": {
        "type": "Point",
        "coordinates": [
          2.694,
          44.982
        ]
      },
      "properties": {
        "name": "La Roussière - Maison d'hôtes",
        "description": "Entre pâturages d'estive, forêts verdoyantes ou coteaux enneigés, La Roussière est une maison d'hôtes unique, aménagée par Brigitte et Christian dans une ancienne ferme de montagne nichée à 1019 m d'altitude, à l'écart de toute voie de passage."
      }
    },
    {
      "type": "Feature",
      "geometry": {
        "type": "Point",
        "coordinates": [
          2.635966,
          44.98094
        ]
      },
      "properties": {
        "name": "Château Ol Puech",
        "description": "Tombez sous le charme de cette imposante bâtisse centenaire et de son beau parc arboré, à 500m de la gare. à votre disposition 3 chambres confortables en harmonie avec l’esprit de la demeure."
      }
    },
    {
      "type": "Feature",
      "geometry": {
        "type": "Point",
        "coordinates": [
          2.455391,
          45.005333
        ]
      },
      "properties": {
        "name": "Château de Sédaiges",
        "description": "Superbe parc arboré de 6 ha avec ruisseau et étangs à 15 mn en voiture de la ville Préfecture : Aurillac et est au pied du Parc Régional des Volcans"
      }
    },
    {
      "type": "Feature",
      "geometry": {
        "type": "Point",
        "coordinates": [
          2.490768,
          44.966446
        ]
      },
      "properties": {
        "name": "\"La Pradelle\"",
        "description": "A 5 min d’Aurillac, sur la route du Puy Mary, Bernard et Mireille vous accueillent dans leur maison de maître du 19ème siècle, entouré d’un enclos arboré. Labellisé \"Accueil Vélo\"."
      }
    },
    {
      "type": "Feature",
      "geometry": {
        "type": "Point",
        "coordinates": [
          2.433492,
          44.919971
        ]
      },
      "properties": {
        "name": "Une Chambre en Ville",
        "description": "Nous vous accueillons dans une maison des années 20, proche du centre-ville, à deux pas de la gare et de la salle de spectacle du Prisme."
      }
    },
    {
      "type": "Feature",
      "geometry": {
        "type": "Point",
        "coordinates": [
          2.493992,
          45.008961
        ]
      },
      "properties": {
        "name": "\"Chez Margaret\"",
        "description": "Maison typiquement auvergnate de 1843 restaurée que je partage avec mes chats (personnes allergiques, s'abstenir!) , à proximité du Parc des Volcans, au pied des chemins de randonnées pédestres.\r\nAu cœur de la vallée des poètes, plein sud au calme."
      }
    },
    {
      "type": "Feature",
      "geometry": {
        "type": "Point",
        "coordinates": [
          2.564878,
          45.038294
        ]
      },
      "properties": {
        "name": "Chambre d'Hôtes de Lageneste",
        "description": "Dans maison auvergnate. Calme, belle vue avec jardin très fleuri, grand potager."
      }
    },
    {
      "type": "Feature",
      "geometry": {
        "type": "Point",
        "coordinates": [
          2.462614,
          44.936254
        ]
      },
      "properties": {
        "name": "Château de la Moissetie",
        "description": "Venez séjourner dans un Château du XIIIème siècle, à 630 m d'altitude, avec un parc paysagé de 2 hectares à seulement 15 minutes à pied du centre-ville d’Aurillac"
      }
    },
    {
      "type": "Feature",
      "geometry": {
        "type": "Point",
        "coordinates": [
          2.435007,
          44.891848
        ]
      },
      "properties": {
        "name": "\"Chez Mounette\"",
        "description": "Chambre d'hôtes située à proximité immédiate d'Aurillac."
      }
    },
    {
      "type": "Feature",
      "geometry": {
        "type": "Point",
        "coordinates": [
          2.513938,
          44.995077
        ]
      },
      "properties": {
        "name": "Ferme de Broize",
        "description": "Notre ferme se situe sur la route des Crêtes entre Aurillac et le Puy Mary au coeur des Monts du Cantal. Idéal pour la randonnée pédestre."
      }
    },
    {
      "type": "Feature",
      "geometry": {
        "type": "Point",
        "coordinates": [
          2.449688,
          44.931571
        ]
      },
      "properties": {
        "name": "L'ERMITAGE",
        "description": "Au cœur de la ville historique, dispensaire des XVIème et XVIIIème siècle, donnant sur un parc."
      }
    },
    {
      "type": "Feature",
      "geometry": {
        "type": "Point",
        "coordinates": [
          2.442518,
          44.882345
        ]
      },
      "properties": {
        "name": "Le Cambon",
        "description": "Maison à la campagne, située à une dizaine de minutes d'Aurillac"
      }
    },
    {
      "type": "Feature",
      "geometry": {
        "type": "Point",
        "coordinates": [
          2.494668,
          44.930901
        ]
      },
      "properties": {
        "name": "CHRISTIANE LAMIOT",
        "description": "Au pied des Monts du Cantal, aux portes d'Aurillac, dans un paysage arboré, Christiane et Michel vous proposent 1 chambre d'hôtes."
      }
    },
    {
      "type": "Feature",
      "geometry": {
        "type": "Point",
        "coordinates": [
          2.513294,
          44.931266
        ]
      },
      "properties": {
        "name": "Chambre d'hôtes  \"La Maison\"",
        "description": "Située au cœur du Cantal près d'Aurillac et de ses montagnes, nous vous accueillerons dans une maison de maître datant de 1828 et restaurée."
      }
    },
    {
      "type": "Feature",
      "geometry": {
        "type": "Point",
        "coordinates": [
          2.658753,
          45.067352
        ]
      },
      "properties": {
        "name": "\"Les 4 Saisons\"",
        "description": "Maison 1900 située à Mandailles au coeur du Massif Cantalien (versant Sud du Puy Mary)."
      }
    },
    {
      "type": "Feature",
      "geometry": {
        "type": "Point",
        "coordinates": [
          2.437752,
          44.941252
        ]
      },
      "properties": {
        "name": "Chambres et Table d'Hôtes de Massigoux",
        "description": "Chambres et Table d’hôtes de Massigoux : au calme, en pleine campagne à 4 min du centre-ville, dans une ancienne ferme rénovée."
      }
    },
    {
      "type": "Feature",
      "geometry": {
        "type": "Point",
        "coordinates": [
          2.902021,
          44.844216
        ]
      },
      "properties": {
        "name": "Chez Denise - Chambres et table d'hôtes",
        "description": "Depuis 26 ans, Denise vous accueille dans une maison de caractère située sur l’Aubrac, à 13km de Chaudes-Aigues, 20 km de Laguiole, à deux pas du plateau de l'Aubrac et de la vallée de la Truyère. Idéalement située pour visiter la région."
      }
    },
    {
      "type": "Feature",
      "geometry": {
        "type": "Point",
        "coordinates": [
          3.248842,
          45.013065
        ]
      },
      "properties": {
        "name": "L'Oustar de Tougnini  - Chambres d'hôtes",
        "description": "Ghislaine et Luc vous souhaitent la bienvenue dans cette grange-étable de Margeride, entièrement rénovée.\r\n4 Chambres de 1 à 4 pers. dont une accessible aux personnes à mobilité réduite (fauteuils). Capacité 12 personnes.\r\nDouche et WC dans les chambres."
      }
    },
    {
      "type": "Feature",
      "geometry": {
        "type": "Point",
        "coordinates": [
          2.90629,
          45.003499
        ]
      },
      "properties": {
        "name": "La Frêneraie - Chambres d'hôtes",
        "description": "Dans un petit village à 1160m d'altitude, au coeur du parc des volcans d'Auvergne et des pistes de ski et des chemins de randonnées, Jocelyne et Michel vous accueillent dans leur maison de caractère où règnent chaleur et convivialité."
      }
    },
    {
      "type": "Feature",
      "geometry": {
        "type": "Point",
        "coordinates": [
          2.822148,
          45.036548
        ]
      },
      "properties": {
        "name": "Auberge de l'Epie - Chambres d'Hôtes et auberge",
        "description": "Maryline et Pierrot vous accueillent dans leur auberge de 1806 entièrement rénovée au charme atypique avec vue sur la montagne, idéale pour des vacances au calme."
      }
    },
    {
      "type": "Feature",
      "geometry": {
        "type": "Point",
        "coordinates": [
          3.102093,
          45.135131
        ]
      },
      "properties": {
        "name": "Auberge de l'Astrassadou - Chambres d'Hôtes et auberge",
        "description": "Bienvenue à L’Astrassadou, une auberge pas tout à fait comme les autres…\r\nSituée à 1 050 mètres d’altitude, dans le petit village de Rézentières, notre maison vous ouvre ses portes pour une pause nature au cœur du Cantal."
      }
    },
    {
      "type": "Feature",
      "geometry": {
        "type": "Point",
        "coordinates": [
          2.782225,
          45.010346
        ]
      },
      "properties": {
        "name": "ARTIS Louis et Elise - \"Les Cascades\" - Chambres et table d'hôte",
        "description": "Dans la magnifique vallée de Brezons au pied du Plomb du Cantal dans un confort et un calme parfaits, 5 chambres d'hôtes ont été aménagées dans une ancienne auberge."
      }
    },
    {
      "type": "Feature",
      "geometry": {
        "type": "Point",
        "coordinates": [
          3.093711,
          45.033011
        ]
      },
      "properties": {
        "name": "La Maison d'Adélaïde - Chambres d'Hôtes",
        "description": "La Maison d ’Adélaïde est idéalement située dans un ancien hôtel particulier du XIXème au coeur du centre historique de St-Flour, proche de la cathédrale St-Pierre et de la Halle aux bleds. Accueil randonneurs et cyclistes. Table d'hôtes sur réservation."
      }
    },
    {
      "type": "Feature",
      "geometry": {
        "type": "Point",
        "coordinates": [
          3.005186,
          44.698667
        ]
      },
      "properties": {
        "name": "La Fontaine de Grégoire - Chambres d'hôtes",
        "description": "Cette bâtisse atypique du XVIIIe cache derrière ses murs de surprenantes chambres d’hôtes. Fred et Isabelle ont ici donné libre cours à leurs passions de collectionneurs, décorateurs, artistes et ont ainsi créé un univers."
      }
    },
    {
      "type": "Feature",
      "geometry": {
        "type": "Point",
        "coordinates": [
          3.007936,
          44.839226
        ]
      },
      "properties": {
        "name": "Chalmeton Agnès - Chambres d'hôtes",
        "description": "A 3 km de Chaudes-Aigues. Dans une maison de caractère deux chambres\r\navec accès indépendant."
      }
    },
    {
      "type": "Feature",
      "geometry": {
        "type": "Point",
        "coordinates": [
          3.087115,
          44.900815
        ]
      },
      "properties": {
        "name": "Guilbot Marinette - Chambres et table d'hôtes",
        "description": "Pour un séjour de charme entre Aubrac et Margeride, dans un cadre de verdure et de calme, Marinette et Michel vous accueillent dans leur maison où règnent chaleur et convivialité."
      }
    },
    {
      "type": "Feature",
      "geometry": {
        "type": "Point",
        "coordinates": [
          3.110375,
          44.912517
        ]
      },
      "properties": {
        "name": "Chassang Céline - Chambres d'hôtes",
        "description": "A 15 km de Chaudes-Aigues. 4 chambres surplombent le Cirque de Mallet, merveilleux site de pêcheurs et randonneurs."
      }
    },
    {
      "type": "Feature",
      "geometry": {
        "type": "Point",
        "coordinates": [
          3.004017,
          44.82205
        ]
      },
      "properties": {
        "name": "La Maison de Gilbert - Chambres d'Hôtes",
        "description": "La maison de Gilbert constitue l’étape pour se ressourcer et découvrir les splendides paysages du Cantal et de l’Aubrac."
      }
    },
    {
      "type": "Feature",
      "geometry": {
        "type": "Point",
        "coordinates": [
          3.085272,
          44.901413
        ]
      },
      "properties": {
        "name": "La Ferme des Deux Vallées - Chambres d'hôtes",
        "description": "Pour les amateurs de vacances reposantes. Dans une maison de caractère, un accueil simple et généreux vous fera savourer calme, grands espaces et vous permettra d'organiser vos découvertes et randonnées avec documentation sur place."
      }
    },
    {
      "type": "Feature",
      "geometry": {
        "type": "Point",
        "coordinates": [
          2.481623,
          45.160041
        ]
      },
      "properties": {
        "name": "Le Moulin du Pont",
        "description": "Jérôme vous recevra dans un ancien moulin situé à 950 mètres d’altitude, à deux kilomètres seulement de la cité médiévale de Salers. Cinq chambres tout confort dans une maison indépendante sur 1ha de parc très paisible."
      }
    },
    {
      "type": "Feature",
      "geometry": {
        "type": "Point",
        "coordinates": [
          2.71343,
          45.045222
        ]
      },
      "properties": {
        "name": "Les Sources",
        "description": "Au pied du plomb du cantal et sur les traces de St Jacques de Compostelle, la maison se situe dans un environnement calme, entourée d'un parc de verdure."
      }
    },
    {
      "type": "Feature",
      "geometry": {
        "type": "Point",
        "coordinates": [
          2.49988,
          45.36372
        ]
      },
      "properties": {
        "name": "Chambres d'hôtes Ferme de séjour",
        "description": "Vous pourrez découvrir en pleine campagne et à la ferme, 5 chambres coquettes et spacieuses au décor soigné et différent entre chaque chambre, soit dans la charmante maison de caractère des propriétaires ou dans une annexe restaurée en pierre."
      }
    },
    {
      "type": "Feature",
      "geometry": {
        "type": "Point",
        "coordinates": [
          2.565589,
          45.21422
        ]
      },
      "properties": {
        "name": "Domaine de Veirières",
        "description": "Isolées dans les estives de la planèze de Trizac, à plus de 1100 mètres d’altitude, les chambres sont aménagées dans deux burons surplombant le lac avec une vue imprenable qui fera le bonheur des passionnés de nature grandiose et préservée..."
      }
    },
    {
      "type": "Feature",
      "geometry": {
        "type": "Point",
        "coordinates": [
          2.867971,
          45.112543
        ]
      },
      "properties": {
        "name": "L'Escale de Camille",
        "description": "Monique vous accueille dans une maison du XVIIe entièrement rénovée au cœur de la cité médiévale. 4 chambres grand confort (literie latex naturel) mêlant charme et authenticité confortablement équipées, dont 1 chambre avec mezzanine avec 2 petits lits."
      }
    },
    {
      "type": "Feature",
      "geometry": {
        "type": "Point",
        "coordinates": [
          2.789513,
          45.159415
        ]
      },
      "properties": {
        "name": "Monts et Délices",
        "description": "Cinq chambres spacieuses de grand confort (de 2 à 5 personnes), literie latex naturel, décorées avec soin, au pied du Puy Mary. Cécile & Jacques seront aux petits soins  et feront leur maximum pour que votre séjour reste inoubliable !"
      }
    },
    {
      "type": "Feature",
      "geometry": {
        "type": "Point",
        "coordinates": [
          2.919038,
          45.113404
        ]
      },
      "properties": {
        "name": "La Gaspardine",
        "description": "Quatre chambres de charme dans une ancienne ferme de caractère de 1844. Terrasse ensoleillée, calme avec vue sur la campagne. Une table d'hôtes est proposée tous les soirs, sauf le dimanche."
      }
    },
    {
      "type": "Feature",
      "geometry": {
        "type": "Point",
        "coordinates": [
          2.871294,
          45.090823
        ]
      },
      "properties": {
        "name": "Martine à la maison",
        "description": "Quatre chambres chez l'habitant dans une ancienne ferme de 1846 entièrement rénovée. Toutes les chambres sont tout confort, équipées de salle de bain ou salle d'eau et WC privatifs. Coin cuisine l'été à votre disposition dans un grand verger."
      }
    },
    {
      "type": "Feature",
      "geometry": {
        "type": "Point",
        "coordinates": [
          2.743715,
          45.13838
        ]
      },
      "properties": {
        "name": "Alta Terra",
        "description": "Ancien hôtel de tourisme de 1920, sur la route du Puy Mary, restauré dans le respect de l'architecture locale et des matériaux proches de la nature. Alta Terra joue la carte du développement durable, en vous offrant un véritable séjour \"au vert\"."
      }
    },
    {
      "type": "Feature",
      "geometry": {
        "type": "Point",
        "coordinates": [
          2.880097,
          45.26941
        ]
      },
      "properties": {
        "name": "Ferme des Prades",
        "description": "Maison de Maître (ancien château détruit à la Révolution) dans un parc d'un ha. Demeure de l'Abbé de Pradt, confesseur de Napoléon 1er. Décor de charme, meubles anciens, cuisine traditionnelle et de terroir, suivant le marché et l'humeur de la cuisinière."
      }
    },
    {
      "type": "Feature",
      "geometry": {
        "type": "Point",
        "coordinates": [
          3.207621,
          45.256265
        ]
      },
      "properties": {
        "name": "Ferme de Vazerat",
        "description": "C'est dans un environnement verdoyant surplombant la vallée de l'Alagnon que Kim et Arthur vous accueillent dans leur ferme fortifiée du XVIe siècle, patrimoine historique de Massiac."
      }
    },
    {
      "type": "Feature",
      "geometry": {
        "type": "Point",
        "coordinates": [
          3.080558,
          44.925656
        ]
      },
      "properties": {
        "name": "Le Grand Val - Chambres d'hôtes",
        "description": "Aux portes de l’Aubrac, proche de l’A75, notre maison d’hôtes surplombe le lac de Garabit-Grandval, avec une vue magnifique sur le plan d’eau et son barrage."
      }
    },
    {
      "type": "Feature",
      "geometry": {
        "type": "Point",
        "coordinates": [
          2.871234,
          45.110256
        ]
      },
      "properties": {
        "name": "Les Volcans",
        "description": "Véronique et Philippe vous accueillent dans un ancien hôtel du 19e siècle restauré dans le charme ancien : ancienne demeure de Jean Pagès Allary, archéologue muratais. Quatre chambres confortables avec salle d'eau et WC privatifs séparés."
      }
    },
    {
      "type": "Feature",
      "geometry": {
        "type": "Point",
        "coordinates": [
          2.715307,
          45.167389
        ]
      },
      "properties": {
        "name": "Chambre d'hôtes Chez MaryElise",
        "description": "Maison d'hôtes Chez MaryElise : Simplicité, Calme , Authenticité ... Juste l'essentiel pour se ressourcer."
      }
    },
    {
      "type": "Feature",
      "geometry": {
        "type": "Point",
        "coordinates": [
          3.335231,
          45.104471
        ]
      },
      "properties": {
        "name": "La Hulottière",
        "description": "Nadine vous accueille dans son petit manoir du 17e siècle. Deux chambres de deux à trois personnes."
      }
    },
    {
      "type": "Feature",
      "geometry": {
        "type": "Point",
        "coordinates": [
          3.04832,
          45.046875
        ]
      },
      "properties": {
        "name": "Ferme le Ruisselet - Chambres et table d'hôtes",
        "description": "Aux portes de Saint-Flour à 10 mn de l’A75, le Ruisselet est une ferme vouée à\r\nl’accueil depuis 1976. Florence, la 3ème génération vous accueille et vous fait découvrir les spécialités locales et les bons plats au goût d’antan."
      }
    },
    {
      "type": "Feature",
      "geometry": {
        "type": "Point",
        "coordinates": [
          3.078224,
          44.926509
        ]
      },
      "properties": {
        "name": "Le domaine de la Bâtisse - Chambres et table d'hôtes",
        "description": "Cécile et Olivier vous accueillent dans leur maison d’hôtes, un ancien corps de ferme rénové, surplombant le lac de retenue du barrage de Grandval."
      }
    },
    {
      "type": "Feature",
      "geometry": {
        "type": "Point",
        "coordinates": [
          2.335927,
          44.781928
        ]
      },
      "properties": {
        "name": "Maison d'hôtes et cuisine italienne \"À la Clairière\"",
        "description": "Idéalement située entre volcans d'Auvergne et vallée du Lot, presque au bout d'une petite route qui se perd dans les champs, à 2 km de Marcolès, Petite Cité de Caractère, et à 35 km de Conques, patrimoine mondial de l'Unesco."
      }
    },
    {
      "type": "Feature",
      "geometry": {
        "type": "Point",
        "coordinates": [
          3.251583,
          45.012075
        ]
      },
      "properties": {
        "name": "Les Volpilières - Auberge et chambres d'hôtes",
        "description": "En lisière de la forêt de la Margeride, avec un panorama d'exception, votre séjour aux Volpilières sera des plus agréables.\r\nMaison d’hôtes et auberge rurale - Ch. de 2 à 5 personnes.\r\nChambres récentes tout confort. Douches et wc dans chaque chambre."
      }
    },
    {
      "type": "Feature",
      "geometry": {
        "type": "Point",
        "coordinates": [
          3.143485,
          44.941565
        ]
      },
      "properties": {
        "name": "La Maison de Suzanne - Chambres d'hôtes",
        "description": "Vous apprécierez le charme de cette grande bâtisse restaurée avec goût, à quelques min du lac de Garabit-Grandval.\r\n5 chambres de 2 à 4 personnes. Au calme avec accès indépendant. Salle d'eau et WC dans les chambres. Taxe de séjour incluse dans les tarifs."
      }
    },
    {
      "type": "Feature",
      "geometry": {
        "type": "Point",
        "coordinates": [
          2.601589,
          45.34312
        ]
      },
      "properties": {
        "name": "Chambre d'hôtes La Ruche Cantalienne",
        "description": "Chambre d'hôte dans le bourg paisible de Saint-Etienne de Chomeil."
      }
    },
    {
      "type": "Feature",
      "geometry": {
        "type": "Point",
        "coordinates": [
          2.32438,
          45.242655
        ]
      },
      "properties": {
        "name": "A l'étable au naturel",
        "description": "Deux chambres d'hôtes de charme. Chaleureuses et confortables, parquet en bois, pierres apparentes. A quelques kms de notre exploitation  avec nos belles vaches Salers  en agriculture biologique. Petit déjeuner \"Bio\", \"maison\" et varié."
      }
    },
    {
      "type": "Feature",
      "geometry": {
        "type": "Point",
        "coordinates": [
          2.6373,
          44.997
        ]
      },
      "properties": {
        "name": "Chambres d'hôtes Le Figarelou",
        "description": "Maison de caractère datant de 1789. Deux chambres d'hôtes avec vue sur parc, au pied du volcan cantalien et à proximité de la station de sport d'hiver et d'été du Lioran."
      }
    },
    {
      "type": "Feature",
      "geometry": {
        "type": "Point",
        "coordinates": [
          2.374666,
          45.117871
        ]
      },
      "properties": {
        "name": "Auberge de la Vallée",
        "description": "L’auberge de la vallée est un lieu authentique et convivial où on savoure une cuisine traditionnelle, et où on peut vernir boire un verre. Une chambre d’hôtes est à disposition pour vos séjours."
      }
    },
    {
      "type": "Feature",
      "geometry": {
        "type": "Point",
        "coordinates": [
          2.559954,
          45.394556
        ]
      },
      "properties": {
        "name": "Chambres d'hôtes La Tanière",
        "description": "Venez prendre un moment de détente à la Tanière, vous profiterez d'une de nos chambres et des moments de convivialité."
      }
    },
    {
      "type": "Feature",
      "geometry": {
        "type": "Point",
        "coordinates": [
          2.453051,
          45.160424
        ]
      },
      "properties": {
        "name": "Chez Dany",
        "description": "Maison typique du pays de 1900.Dans un bourg campagnard, ambiance familiale, calme - parking - terrasse - Restaurant à 50 m."
      }
    },
    {
      "type": "Feature",
      "geometry": {
        "type": "Point",
        "coordinates": [
          2.527778,
          45.084647
        ]
      },
      "properties": {
        "name": "Auberge du Pont",
        "description": "L'Auberge du Pont vous accueille dans une de ses quatre chambres spacieuses et fonctionnelles."
      }
    },
    {
      "type": "Feature",
      "geometry": {
        "type": "Point",
        "coordinates": [
          2.796374,
          45.153318
        ]
      },
      "properties": {
        "name": "Château de la Cheyrelle",
        "description": "Suite du pavillon de garde du château de la Cheyrelle. C'est une maison indépendante au charme insolite, construite en 1906 d'influence Art nouveau. Suite avec chambre et salle de bain \"à l'ancienne\", ainsi qu'une pièce à vivre dotée d'un poêle à bois."
      }
    },
    {
      "type": "Feature",
      "geometry": {
        "type": "Point",
        "coordinates": [
          2.6247,
          44.980125
        ]
      },
      "properties": {
        "name": "Maison du Chevalier des Huttes",
        "description": "Séjourner à la Maison du Chevalier des Huttes, c’est vivre une expérience humaniste, authentique et gourmande dans l’atmosphère conviviale, intimiste et confortable d’un lieu historique et d’une table d’exception, au cœur d’un environnement unique."
      }
    },
    {
      "type": "Feature",
      "geometry": {
        "type": "Point",
        "coordinates": [
          2.707838,
          45.163009
        ]
      },
      "properties": {
        "name": "Chambres d'hôtes l'Estive du Claux",
        "description": "Chambre et table d'hôtes l'Estive du Claux."
      }
    },
    {
      "type": "Feature",
      "geometry": {
        "type": "Point",
        "coordinates": [
          2.806813,
          44.944324
        ]
      },
      "properties": {
        "name": "Château de Lescure - Chambres d'hôtes",
        "description": "Chambres d’hôtes de charme dans une demeure authentique au cœur de la Vallée de Brezons."
      }
    },
    {
      "type": "Feature",
      "geometry": {
        "type": "Point",
        "coordinates": [
          2.677209,
          45.029527
        ]
      },
      "properties": {
        "name": "Chambres d'hôtes Le Clou",
        "description": "Hélène et Cyrille vous invitent à vous ressourcer au Clou, une ferme de montagne bâtie en 1610, située au dessus de Thiézac. Une maison de charme avec vue spectaculaire sur les Monts du Cantal."
      }
    },
    {
      "type": "Feature",
      "geometry": {
        "type": "Point",
        "coordinates": [
          2.583024,
          45.028978
        ]
      },
      "properties": {
        "name": "La Maison Normande",
        "description": "La Maison Normande vous propose 4 chambres spacieuses et confortables, chacune avec sa salle d'eau privative, dans notre maison récemment rénovée. Un lieu de détente et de partage pour découvrir et explorer le Cantal à son rythme."
      }
    },
    {
      "type": "Feature",
      "geometry": {
        "type": "Point",
        "coordinates": [
          2.489221,
          45.135466
        ]
      },
      "properties": {
        "name": "La Grange",
        "description": "Dans le magnifique village médiéval de Salers, nous vous accueillons à \"La Grange\", dans nos 5 chambres d'hôtes cosy. Profitez du calme et de la vue imprenable sur les Monts du Cantal dans notre jardin de 2 hectares à 7mn à pied du centre historique."
      }
    },
    {
      "type": "Feature",
      "geometry": {
        "type": "Point",
        "coordinates": [
          3.163314,
          45.186247
        ]
      },
      "properties": {
        "name": "La Maison des chats",
        "description": "Aucune description."
      }
    },
    {
      "type": "Feature",
      "geometry": {
        "type": "Point",
        "coordinates": [
          2.970616,
          45.172681
        ]
      },
      "properties": {
        "name": "Chez Madame Morin",
        "description": "Aucune description."
      }
    },
    {
      "type": "Feature",
      "geometry": {
        "type": "Point",
        "coordinates": [
          3.263856,
          45.191771
        ]
      },
      "properties": {
        "name": "Job Hervé",
        "description": "Aucune description."
      }
    },
    {
      "type": "Feature",
      "geometry": {
        "type": "Point",
        "coordinates": [
          3.176166,
          45.236684
        ]
      },
      "properties": {
        "name": "Chez Nathalie & Roland",
        "description": "Chambre privative en rez-de-chaussée, chez l'habitant, dans une maison située en campagne à 3 km de Massiac. La chambre peut accueillir 3 personnes maximum . Petit-déjeuner compris à prendre dans la cuisine attenante ou en terrasse."
      }
    },
    {
      "type": "Feature",
      "geometry": {
        "type": "Point",
        "coordinates": [
          2.934238,
          45.229523
        ]
      },
      "properties": {
        "name": "La Verte Salamandre",
        "description": "En Auvergne, au cœur d'Allanche dans le cantal, je vous propose de vous accueillir dans une chambre d'hôtes bois et pierre à la Verte Salamandre. Le logement touristique se situe sur la place de l'église, monument classé au patrimoine historique."
      }
    },
    {
      "type": "Feature",
      "geometry": {
        "type": "Point",
        "coordinates": [
          2.933908,
          45.229669
        ]
      },
      "properties": {
        "name": "L'Eau Berge",
        "description": "L’Eau Berge propose ses chambres & table d'hôte d'une capacité de 15 personnes. Nous vous accueillons dans l'ancienne école St-Joseph, décorée de la plaque « Les Justes » rappelant le courage des Sœurs de l’établissement pendant la 2ème Guerre Mondiale."
      }
    },
    {
      "type": "Feature",
      "geometry": {
        "type": "Point",
        "coordinates": [
          3.144838,
          45.178598
        ]
      },
      "properties": {
        "name": "Ferme de Nozerolles",
        "description": "Trois chambres d'hôtes dont une chambre familiale, dans une ancienne ferme entièrement restaurée. Chambres d'hôtes situées à proximité de l'autoroute A75 (5 kms) pour une halte sur la route des vacances. Table d'hôtes proposant des spécialités régionales."
      }
    },
    {
      "type": "Feature",
      "geometry": {
        "type": "Point",
        "coordinates": [
          2.563898,
          45.366783
        ]
      },
      "properties": {
        "name": "Chambres d'hôtes Le Sellier",
        "description": "Au cœur des \"Dailles\", à 5 km du bourg, 2 chambres d'hôtes au lieu dit \"Le Sellier\"\r\nforment un nid pour se ressourcer, une étape au bout du monde, aux confins de la nature et au milieu des animaux."
      }
    },
    {
      "type": "Feature",
      "geometry": {
        "type": "Point",
        "coordinates": [
          2.224957,
          44.97606
        ]
      },
      "properties": {
        "name": "Chambres d'hôtes du Pontdorg'hôte",
        "description": "Maison agréable où vous passerez un séjour détendu et convivial. À 3 km de la Petite Cité de Caractère® de Laroquebrou, vous êtes déjà aux portes de l’Occitanie."
      }
    },
    {
      "type": "Feature",
      "geometry": {
        "type": "Point",
        "coordinates": [
          2.788888,
          45.158404
        ]
      },
      "properties": {
        "name": "Chambres d'hôtes de l'épicerie",
        "description": "Location de 3 chambres confortables \"de randonneurs\", avec salle de douche et toilettes partagées. Petit déjeuner et dîner possible sur place."
      }
    },
    {
      "type": "Feature",
      "geometry": {
        "type": "Point",
        "coordinates": [
          2.434571,
          45.09184
        ]
      },
      "properties": {
        "name": "La Demeure de Cyr",
        "description": "La Demeure de Cyr, maison de maître de 1859, vous accueille dans ses trois chambres, au cœur du Pays de Salers. Vous pourrez profiter d'un jardin clos de 3000 m²."
      }
    },
    {
      "type": "Feature",
      "geometry": {
        "type": "Point",
        "coordinates": [
          2.623347,
          44.978376
        ]
      },
      "properties": {
        "name": "Home le Soft",
        "description": "Chambres d 'hôtes de 5 chambres : double à suite pour 15 personnes . \r\nLieu atypique avec salle à manger , salon et terrasse en centre ville de Vic.\r\nCalme et avec vue sur les montagnes . table d 'hôte et bar .\r\nAmoureux motos & vieilles voitures bienvenue !"
      }
    },
    {
      "type": "Feature",
      "geometry": {
        "type": "Point",
        "coordinates": [
          2.790235,
          45.112412
        ]
      },
      "properties": {
        "name": "Au cœur du Volcantal",
        "description": "Chambres, table d'hôtes et Bien-être à Laveissière. 5 Chambres d'hôtes (capacité maximum de 11 pers.). Tables d'hôtes et paniers pique-nique sur réservation (24h à l'avance). Soins énergétiques lahochi ,triangle d'or d'Isis, access bars,  sur réservation."
      }
    },
    {
      "type": "Feature",
      "geometry": {
        "type": "Point",
        "coordinates": [
          2.221906,
          44.91056
        ]
      },
      "properties": {
        "name": "Chambres d'hôtes auvergnates",
        "description": "Maison de type auvergnat avec deux chiens qui raffolent des câlins."
      }
    },
    {
      "type": "Feature",
      "geometry": {
        "type": "Point",
        "coordinates": [
          3.001756,
          44.706894
        ]
      },
      "properties": {
        "name": "Le Bessou de l'Aubrac - Chambres et table d'hôtes",
        "description": "Au cœur du Parc Naturel Régional de l’Aubrac dans le Sud du Cantal, aux croisements de l’Aveyron et de la Lozère, pour les admirateurs de grands espaces, d’air pur et les fins gourmets."
      }
    },
    {
      "type": "Feature",
      "geometry": {
        "type": "Point",
        "coordinates": [
          2.315167,
          44.815139
        ]
      },
      "properties": {
        "name": "Le Tromp l'œil - Chambres d'hôtes",
        "description": "Chambre d'hôte, multiservice, bar-restaurant, épicerie et dépôt de pain."
      }
    },
    {
      "type": "Feature",
      "geometry": {
        "type": "Point",
        "coordinates": [
          2.794718,
          45.382293
        ]
      },
      "properties": {
        "name": "Chambre d'hôtes Chez De Vergne",
        "description": "Quiétude, rusticité et confort à 1000m d'altitude au milieu des vaches. 4 Chambres d'hôtes labellisée \"Nattitude\"."
      }
    },
    {
      "type": "Feature",
      "geometry": {
        "type": "Point",
        "coordinates": [
          2.292353,
          45.245992
        ]
      },
      "properties": {
        "name": "La Ruche",
        "description": "Dans un hameau à 5 km de Mauriac et 3 km des gorges de la Dordogne, gîte dans une grange indépendante."
      }
    },
    {
      "type": "Feature",
      "geometry": {
        "type": "Point",
        "coordinates": [
          2.457962,
          45.379642
        ]
      },
      "properties": {
        "name": "Chambres et table d'hôtes Logis du Lac Madic",
        "description": "Cécile et Laurent vous accueillent dans leur grange réaménagée en logis pour des séjours de découvertes et de dépaysement \"au-VERT-gnat\" . Soirées étapes pour les commerciaux en semaine ou séminaires."
      }
    },
    {
      "type": "Feature",
      "geometry": {
        "type": "Point",
        "coordinates": [
          2.724853,
          45.283252
        ]
      },
      "properties": {
        "name": "Chambre d'hôtes La Grange de l'Abille",
        "description": "Ancienne grange complétement rénovée de façon éco-responsable. A 10 min de Riom-ès-Montagnes, 20 min du Puy Mary, 40 min de la station du Lioran et celle de Super Besse."
      }
    },
    {
      "type": "Feature",
      "geometry": {
        "type": "Point",
        "coordinates": [
          2.693807,
          45.248857
        ]
      },
      "properties": {
        "name": "Chambre d'hôtes Jardins Utiles",
        "description": "Maison au coeur du village d'Apchon. Simple et authentique. Salle d'eau commune aux voyageurs. Intérieur chaleureux."
      }
    },
    {
      "type": "Feature",
      "geometry": {
        "type": "Point",
        "coordinates": [
          2.71693,
          45.193706
        ]
      },
      "properties": {
        "name": "Chambre d'hôtes de Curières",
        "description": "Mathilde et Simon vous souhaite la bienvenue dans notre chambre d’hôtes à Curières. Datant du XVI ème, cette maison de caractère possède un parc paysager de 8000 m2 avce une vue sur le Puy Mary, le Puy de la Tourte et le Peyre Arse."
      }
    },
    {
      "type": "Feature",
      "geometry": {
        "type": "Point",
        "coordinates": [
          2.505576,
          44.756536
        ]
      },
      "properties": {
        "name": "Chambres d'hôtes Le Sécadou",
        "description": "Notre maison de 1808, typique de la Châtaigneraie, se trouve dans un village d'un peu moins de 500 habitants. Elle a été totalement rénovée en 2018 offrant 3 chambres d'hôtes. Depuis 2025 nous avons créé une dépendance avec une suite familiale."
      }
    },
    {
      "type": "Feature",
      "geometry": {
        "type": "Point",
        "coordinates": [
          2.27229,
          45.1501
        ]
      },
      "properties": {
        "name": "Plantes et Sabots",
        "description": "Véronique et Emmanuel  vous accueillent sur leur ferme BIO pour un séjour au calme, au coeur du \"pays vert\" avec vue sur les montagnes."
      }
    },
    {
      "type": "Feature",
      "geometry": {
        "type": "Point",
        "coordinates": [
          3.123321,
          45.227382
        ]
      },
      "properties": {
        "name": "Le Clos Joli",
        "description": "Accueil chaleureux dans une grande maison en pleine nature, avec un jardin et une vue magnifique, dans un petit village situé sur la RN122 direction le Lioran (station de ski), ainsi qu'à 5 minutes de la A75. Animaux acceptés*"
      }
    },
    {
      "type": "Feature",
      "geometry": {
        "type": "Point",
        "coordinates": [
          2.216514,
          44.650826
        ]
      },
      "properties": {
        "name": "Chambres d'hôtes L'Entre-Deux",
        "description": "Vous souhaitez vous poser pour une nuit ou plus afin de découvrir le village de Saint-Santin-de-Maurs et ses visites aux alentours ?"
      }
    },
    {
      "type": "Feature",
      "geometry": {
        "type": "Point",
        "coordinates": [
          2.614317,
          45.158767
        ]
      },
      "properties": {
        "name": "L'Espalière",
        "description": "L'Espalière, chambres d'hôtes au pied des Monts du Cantal, au coeur de la vallée du Mars avec vue sur le Puy Mary."
      }
    },
    {
      "type": "Feature",
      "geometry": {
        "type": "Point",
        "coordinates": [
          2.677173,
          45.327094
        ]
      },
      "properties": {
        "name": "La Fermette de Loucheyre",
        "description": "Chambre d'hôtes. Entrée indépendante pour les hôtes et un espace dédié."
      }
    },
    {
      "type": "Feature",
      "geometry": {
        "type": "Point",
        "coordinates": [
          2.738437,
          45.362125
        ]
      },
      "properties": {
        "name": "Chambres d'hôtes Equi Cantal",
        "description": "Chambre d'hôtes en demi-pension."
      }
    },
    {
      "type": "Feature",
      "geometry": {
        "type": "Point",
        "coordinates": [
          2.662422,
          45.404574
        ]
      },
      "properties": {
        "name": "Chambres d'hôtes Les Sentiers du Lac",
        "description": "Besoin de vous ressourcer ? Venez vous évader à la maison, dans un lieu bucolique, où vous pourrez vous promener, vous baigner ou skier selon les saisons. Le passage du GR30 est à 1km. Nous proposons 2 chambres d'hôtes avec petit-déjeuner inclus."
      }
    },
    {
      "type": "Feature",
      "geometry": {
        "type": "Point",
        "coordinates": [
          2.3151,
          45.061477
        ]
      },
      "properties": {
        "name": "Le Miraillet",
        "description": "Chambre d'hôtes avec une capacité de 6 personnes à SAINT-ILLIDE"
      }
    },
    {
      "type": "Feature",
      "geometry": {
        "type": "Point",
        "coordinates": [
          2.467491,
          45.127784
        ]
      },
      "properties": {
        "name": "Chambres d'hôtes Feignon",
        "description": "Chambre d'hôtes avec une capacité de 4 personnes à SAINT-MARTIN-VALMEROUX"
      }
    },
    {
      "type": "Feature",
      "geometry": {
        "type": "Point",
        "coordinates": [
          2.330153,
          45.176532
        ]
      },
      "properties": {
        "name": "Château de la Vigne",
        "description": "Chambre d'hôtes avec une capacité de 8 personnes dans le CHÂTEAU DE LA VIGNE."
      }
    },
    {
      "type": "Feature",
      "geometry": {
        "type": "Point",
        "coordinates": [
          2.310982,
          45.154826
        ]
      },
      "properties": {
        "name": "Chambre d'hôtes TESTE",
        "description": "Chambre d'hôtes avec une capacité de 2personnes à ALLY"
      }
    },
    {
      "type": "Feature",
      "geometry": {
        "type": "Point",
        "coordinates": [
          2.501098,
          45.078426
        ]
      },
      "properties": {
        "name": "Les Nuits de Vieillespeze",
        "description": "2 Chambre d’hôtes pour une capacité maximum de 6 personnes"
      }
    },
    {
      "type": "Feature",
      "geometry": {
        "type": "Point",
        "coordinates": [
          2.457556,
          45.216152
        ]
      },
      "properties": {
        "name": "Château de Longevergne",
        "description": "Au beau milieu de la vallée du Mars, trône le château de Longevergne. A taille humaine, daté du XIIIe siècle, il en impose par son charme si particulier, son architecture néo-médiévale et son style troubadour. Chambres d’hôtes dans un mobilier d’époque."
      }
    },
    {
      "type": "Feature",
      "geometry": {
        "type": "Point",
        "coordinates": [
          2.708945,
          45.206691
        ]
      },
      "properties": {
        "name": "Chambres d’hôtes Cresta Domi",
        "description": "Vous serez accueillis dans la vallée de Cheylade avec vue imprenable sur le Puy Mary. Des chambres confortables et un grand jardin ombragé au milieu des prés sont propices à un temps de détente et comme point de départ pour de nombreuses activités."
      }
    },
    {
      "type": "Feature",
      "geometry": {
        "type": "Point",
        "coordinates": [
          2.915741,
          45.248559
        ]
      },
      "properties": {
        "name": "Chambre chez l'Habitant - Le Havre de Paix",
        "description": "Sur le Tour des Vaches rouges, chambres d'hôtes : 2 chambres traversantes : 1 chambre 2 pers. et 1 chambre 2 pers."
      }
    },
    {
      "type": "Feature",
      "geometry": {
        "type": "Point",
        "coordinates": [
          2.873608,
          45.112593
        ]
      },
      "properties": {
        "name": "Le Vol du Milan",
        "description": "Chambre familiale avec salle de bain attenante dans notre maison avec une vue magnifique sur les monts du Cantal. Un salon avec des jeux vous est réservé ainsi que pour le petit déjeuner inclus. Cuisine à votre disposition si besoin."
      }
    },
    {
      "type": "Feature",
      "geometry": {
        "type": "Point",
        "coordinates": [
          3.009474,
          45.124266
        ]
      },
      "properties": {
        "name": "Chambres d'Hôtes \"Vacances à la Ferme Fruitée\"",
        "description": "Bonjour, la ferme fruitée aime à vivre en harmonie avec la nature ; elle vous invite à partager cette belle aventure."
      }
    },
    {
      "type": "Feature",
      "geometry": {
        "type": "Point",
        "coordinates": [
          2.400661,
          45.12978
        ]
      },
      "properties": {
        "name": "Imago",
        "description": "Situé à Sainte-Eulalie, l’hébergement chambres d'hôtes Imago met à votre disposition 2 chambres, une connexion Wi-Fi gratuite et offre une vue sur la montagne. Il comprend un jardin et un parking privé gratuit."
      }
    },
    {
      "type": "Feature",
      "geometry": {
        "type": "Point",
        "coordinates": [
          2.573922,
          45.187069
        ]
      },
      "properties": {
        "name": "Chambre d'hôte Genestal",
        "description": "Chambre d'hôtes , capacité 2 pers."
      }
    },
    {
      "type": "Feature",
      "geometry": {
        "type": "Point",
        "coordinates": [
          2.313131,
          45.173389
        ]
      },
      "properties": {
        "name": "Au Relais de Poste",
        "description": "4 chambres toute équipés : \r\n\r\nLit double 160x200\r\nLit simple 90x190\r\nTélévisions 80cm\r\nClimatisée\r\nAccès internet gratuit par wifi\r\nToilettes séparés\r\nGrandes salle de bain avec douche à l'italienne\r\nParking privée et sur vidéo surveillance"
      }
    },
    {
      "type": "Feature",
      "geometry": {
        "type": "Point",
        "coordinates": [
          2.855964,
          45.019599
        ]
      },
      "properties": {
        "name": "Le domaine de Belinay - Chambres et table d'hôtes",
        "description": "L'établissement dispose de 5 chambres d’hôtes et d’une table d’hôtes conviviale."
      }
    },
    {
      "type": "Feature",
      "geometry": {
        "type": "Point",
        "coordinates": [
          2.898458,
          44.839934
        ]
      },
      "properties": {
        "name": "Chambres d'hôtes Besson",
        "description": "A Lieutadès en Aubrac, 3 chambres et table d’hôtes dans une maison de 1662. Charme authentique."
      }
    }
  ]
}