{
  "type": "FeatureCollection",
  "features": [
    {
      "type": "Feature",
      "geometry": {
        "type": "Point",
        "coordinates": [
          2.870566,
          45.344221
        ]
      },
      "properties": {
        "name": "Gite d'Étape de Montgreleix",
        "description": "Ancienne école rénovée se trouvant sur la plus haute commune du Cantal, vue panoramique sur le Sancy et le plomb du Cantal."
      }
    },
    {
      "type": "Feature",
      "geometry": {
        "type": "Point",
        "coordinates": [
          2.666609,
          45.282015
        ]
      },
      "properties": {
        "name": "Gîte Hip Hop / Rock / Jazz espace camping",
        "description": "Au cœur du camping , 3 gîtes collectifs et une capacité de 46 pers pouvant être complété par deux autres de 20 pers permettent l'accueil de groupe. Salle de restauration associée permettant les séjours en autonomie/ Demie pension ou PC"
      }
    },
    {
      "type": "Feature",
      "geometry": {
        "type": "Point",
        "coordinates": [
          2.666501,
          45.281771
        ]
      },
      "properties": {
        "name": "Gîte Dali Klimt",
        "description": "Bâtiment d'une capacité totale de 20 couchages répartis en six chambres. Salle collective. Accueil groupe et stages sportifs. Possibilité de pension complète ou en gestion libre."
      }
    },
    {
      "type": "Feature",
      "geometry": {
        "type": "Point",
        "coordinates": [
          2.76124,
          45.288086
        ]
      },
      "properties": {
        "name": "Gîte d'étape de Lugarde",
        "description": "Situé sur le GR 4 et le GTVA"
      }
    },
    {
      "type": "Feature",
      "geometry": {
        "type": "Point",
        "coordinates": [
          2.370545,
          45.109417
        ]
      },
      "properties": {
        "name": "Le Grand Gîte - Moments Nature",
        "description": "« Le Grand Gîte » est une ancienne grange auvergnate rénovée  offrant 15 chambres (2/6 pers) avec pierres apparentes. Salle à manger avec grand cantou et poêle à bois et vue sur la vallée..."
      }
    },
    {
      "type": "Feature",
      "geometry": {
        "type": "Point",
        "coordinates": [
          2.684643,
          44.950829
        ]
      },
      "properties": {
        "name": "Les Flocons Verts",
        "description": "Pailherols est une étape incontournable pour des activités de pleine nature : randonnées pédestres (PR et GR 465), ski de fond, VTT.\r\nLe gîte est composé de 9 chambres et d'une salle de vie spacieuse avec 2 coins salons aménagés. cuisine équipée."
      }
    },
    {
      "type": "Feature",
      "geometry": {
        "type": "Point",
        "coordinates": [
          2.622573,
          44.921584
        ]
      },
      "properties": {
        "name": "Les Herbages",
        "description": "Situé à 950m, dans un espace préservé, le gîte d’étape Les Herbages vous accueille dans le cadre de randonnées pédestres ou équestres, séjours en famille. Confort, calme, équipement complet."
      }
    },
    {
      "type": "Feature",
      "geometry": {
        "type": "Point",
        "coordinates": [
          2.987352,
          45.091442
        ]
      },
      "properties": {
        "name": "Gîte de groupe Chantarisa",
        "description": "Gîte de groupes rénové de 104 lits (Gîte d’étape, de séjour et de groupes). Situé dans le village de Coltines, à 20 mn du Massif volcanique du Cantal, de la station du Lioran et du site nordique de Prat de Bouc."
      }
    },
    {
      "type": "Feature",
      "geometry": {
        "type": "Point",
        "coordinates": [
          3.251695,
          45.012455
        ]
      },
      "properties": {
        "name": "Gîte de groupe de l'auberge Les Volpilières",
        "description": "A moins de 10 minutes de l’A75, le gîte «les Volpilières» est situé dans un petit village très calme en lisière de la forêt de la Margeride à 1050 m d’altitude. Chambres récentes, tout confort avec douches et WC, spacieuses dans un cadre traditionnel."
      }
    },
    {
      "type": "Feature",
      "geometry": {
        "type": "Point",
        "coordinates": [
          3.219652,
          45.001145
        ]
      },
      "properties": {
        "name": "Gîte de groupe Les Aygues",
        "description": "Un hébergement de charme dans un ancien corps de ferme, avec tout le confort apporté par d'importants travaux de restauration réalisés en 2018.\r\nGîte de groupe ouvert toute l’année (65 lits) dont 10 lits en gîte indépendant."
      }
    },
    {
      "type": "Feature",
      "geometry": {
        "type": "Point",
        "coordinates": [
          3.108454,
          45.276455
        ]
      },
      "properties": {
        "name": "Gite d'étape et de séjour de Laurie",
        "description": "Gite de groupe communal, au pied du Cézallier, équipé de deux dortoirs : un dortoir avec six couchages et un dortoir avec huit couchages. Sanitaires et cuisine à disposition. + 2 salles de bain privative indépendantes."
      }
    },
    {
      "type": "Feature",
      "geometry": {
        "type": "Point",
        "coordinates": [
          3.04832,
          45.046875
        ]
      },
      "properties": {
        "name": "Ferme Le Ruisselet - gîte de groupes",
        "description": "Gîte de Séjour, capacité 15 personnes dans une belle grange de 1870, entièrement rénovée.- Tables d'hôtes possible."
      }
    },
    {
      "type": "Feature",
      "geometry": {
        "type": "Point",
        "coordinates": [
          2.620003,
          45.153187
        ]
      },
      "properties": {
        "name": "Gîte d'étape du Falgoux",
        "description": "Situé à 920m d'altitude dans le terrain de camping du village, en bordure de rivière, le gîte est installé dans un lieu de verdure, calme et cerné de montagnes."
      }
    },
    {
      "type": "Feature",
      "geometry": {
        "type": "Point",
        "coordinates": [
          2.584244,
          45.101655
        ]
      },
      "properties": {
        "name": "Gîte d'étape du Fau",
        "description": "Couchage 25 personnes. Proximité Puy Violent et Puy Chavaroche."
      }
    },
    {
      "type": "Feature",
      "geometry": {
        "type": "Point",
        "coordinates": [
          2.32773,
          45.307756
        ]
      },
      "properties": {
        "name": "Gîte de séjour 15 personnes",
        "description": "Pour un séjour au calme, dans l'ancienne école du village, en surplomb de la haute-vallée de la Dordogne,découvrez un gîte sur deux niveaux qui offre un hébergement modulable, de très bon confort pouvant accueillir 15 personnes."
      }
    },
    {
      "type": "Feature",
      "geometry": {
        "type": "Point",
        "coordinates": [
          2.554256,
          45.045173
        ]
      },
      "properties": {
        "name": "Gîte d 'Etape de la Croix de Cheules",
        "description": "L’Auberge de La Croix de Cheules vous propose à l’étage son gîte d’étape au coeur des Monts du Cantal d’une surface de 120 m² et d’une capacité d’accueil de 14 personnes."
      }
    },
    {
      "type": "Feature",
      "geometry": {
        "type": "Point",
        "coordinates": [
          2.697144,
          45.015662
        ]
      },
      "properties": {
        "name": "Gîte Ely LAFON",
        "description": "Gîte idéal pour toutes activités de pleine nature : randonnée, balade, VTT, raquettes, parapente.\r\nSitué sur la Via Arverna, chemin de St Jacques de Compostelle (Clermont Ferrand-Cahors), sur la boucle du GR400 vallée de la Cère et sur le GRP du Carladès."
      }
    },
    {
      "type": "Feature",
      "geometry": {
        "type": "Point",
        "coordinates": [
          2.579372,
          45.070364
        ]
      },
      "properties": {
        "name": "Caldera hébergements & activités d'altitude",
        "description": "Maison de montagne située à 1231 mètres d'altitude au Col de Légal à proximité du GR400. L'établissement dispose de 17 chambres individuelles entièrement équipées, avec toilettes et salle de bain privative."
      }
    },
    {
      "type": "Feature",
      "geometry": {
        "type": "Point",
        "coordinates": [
          2.785646,
          45.158219
        ]
      },
      "properties": {
        "name": "Gîte des Quirous",
        "description": "Le gîte des quirous est composé de 13 chambres, un salon TV wifi, une cuisine et uen salle de restauration, pour un total de 38 places"
      }
    },
    {
      "type": "Feature",
      "geometry": {
        "type": "Point",
        "coordinates": [
          2.739323,
          45.125277
        ]
      },
      "properties": {
        "name": "La Boudio",
        "description": "Le gite d'étape la Boudio est situé au départ des sentiers de randonnée, au calme en bordure de rivière. Le gite est équipé d'un dortoir et de 8 chambres et 3 suites. Sanitaires privatifs. Cuisine familiale et de qualité."
      }
    },
    {
      "type": "Feature",
      "geometry": {
        "type": "Point",
        "coordinates": [
          2.78599,
          45.158148
        ]
      },
      "properties": {
        "name": "Gite Petit Quirous",
        "description": "Gite d'étape communal équipé de deux dortoirs (l'un de quatre lits superposés, l'autre de huit lits superposés), de sanitaires et d'une cuisine en gestion libre."
      }
    },
    {
      "type": "Feature",
      "geometry": {
        "type": "Point",
        "coordinates": [
          2.830317,
          45.304637
        ]
      },
      "properties": {
        "name": "Gite d'étape communal de l'école de Marcenat",
        "description": "Gite d'étape communal en gestion libre équipé de quatre chambres (de deux lits chacune), sanitaires, salle commune et coin cuisine."
      }
    },
    {
      "type": "Feature",
      "geometry": {
        "type": "Point",
        "coordinates": [
          2.668019,
          45.021979
        ]
      },
      "properties": {
        "name": "Ferme de Trielle",
        "description": "A 1100 m d'altitude dans le Cantal aux alentours de Thiézac, si vous cheminez sur le GR400 vous passerez certainement devant, à mille lieux d'imaginer que cette ferme  auvergnate accueille aussi depuis 40 ans tout un monde de formations artistiques."
      }
    },
    {
      "type": "Feature",
      "geometry": {
        "type": "Point",
        "coordinates": [
          3.004582,
          44.697677
        ]
      },
      "properties": {
        "name": "Gîte d'étape PEP - Saint-Urcize en Aubrac",
        "description": "Au cœur de l'Aubrac Cantalien, notre gîte d’étape vous accueille pour une nuit ou plus, que vous soyez en solo, en famille ou en groupe. Pour les amateurs de sports d’hiver, le domaine skiable se trouve à 3km, n’hésitez pas à nous contacter pour réserver!"
      }
    },
    {
      "type": "Feature",
      "geometry": {
        "type": "Point",
        "coordinates": [
          2.753356,
          45.344454
        ]
      },
      "properties": {
        "name": "Gîte d’étape et de groupe de la Borie de Pourtou",
        "description": "Gîte d’étape et de groupe de la Borie de Pourtou sur le GR4 dans le nord Cantal. Gestion libre possible."
      }
    },
    {
      "type": "Feature",
      "geometry": {
        "type": "Point",
        "coordinates": [
          2.929691,
          45.05371
        ]
      },
      "properties": {
        "name": "Gîte d'étape de Valuéjols",
        "description": "Gîte d'étape et de séjour à Valuéjols, commune typique de la planèze de Saint-Flour."
      }
    },
    {
      "type": "Feature",
      "geometry": {
        "type": "Point",
        "coordinates": [
          2.827192,
          45.306355
        ]
      },
      "properties": {
        "name": "Gîte d'étape communal de la Poste de Marcenat",
        "description": "Gîte d'étape en gestion libre résolument \"Vintage\" (mobilier récup d'un bar américain) entièrement rénové. Cinq chambres : une chambre homologuée pour personne handicapée (avec un lit accompagnant). Quatre chambres de 2 ou 3 personnes avec lits 90."
      }
    },
    {
      "type": "Feature",
      "geometry": {
        "type": "Point",
        "coordinates": [
          2.576759,
          45.031455
        ]
      },
      "properties": {
        "name": "Refuge de Brézellec",
        "description": "Ce refuge de 4 personnes se situe dans la belle vallée de la Jordanne, dans les montagnes du Cantal, sur la route du Puy Mary."
      }
    },
    {
      "type": "Feature",
      "geometry": {
        "type": "Point",
        "coordinates": [
          2.657111,
          45.067943
        ]
      },
      "properties": {
        "name": "Gîte d'étape et de séjour Vert Azur",
        "description": "Gîte d\"étape sur le GR400. Il a été pensé pour l'accueil de sportifs et de groupes en toutes saisons. Il est doté d'un confort et d'un espace permettant le repos, la récupération, la rencontre et la convivialité. Venez y séjourner, vous comprendrez... !"
      }
    },
    {
      "type": "Feature",
      "geometry": {
        "type": "Point",
        "coordinates": [
          2.206495,
          44.716475
        ]
      },
      "properties": {
        "name": "Gîte de groupe - Lou Castanhaïre (Le Châtaignier)",
        "description": "Parfait pour les groupes et les rassemblements familiaux, ce gîte offre 14 couchages répartis dans 4 chambres grand confort, chacune avec sa salle de bains individuelle."
      }
    },
    {
      "type": "Feature",
      "geometry": {
        "type": "Point",
        "coordinates": [
          2.677062,
          45.029435
        ]
      },
      "properties": {
        "name": "Le Clou - Gite d'étape",
        "description": "Situé sur le GR400, ce gite d'étape typique propose 3 lits simples avec sanitaires et douche à l'extérieur. Sont mis à disposition : frigidaire, four micro-onde, plaque de cuisson, vaisselle)."
      }
    },
    {
      "type": "Feature",
      "geometry": {
        "type": "Point",
        "coordinates": [
          2.924431,
          45.269668
        ]
      },
      "properties": {
        "name": "Gîte d'étape Le Pousadou",
        "description": "Gîte d'étape  pour 6 à 8 personnes sur la randonnée du Tour des Vaches rouges."
      }
    },
    {
      "type": "Feature",
      "geometry": {
        "type": "Point",
        "coordinates": [
          2.82957,
          45.304461
        ]
      },
      "properties": {
        "name": "Gîte équestre de Marcenat",
        "description": "Gîte équestre situé à Marcenat. accueil des randonneurs et des randonneurs à cheval. Gîte entièrement rénové à proximité moyenne surface \"Intermarché\"."
      }
    },
    {
      "type": "Feature",
      "geometry": {
        "type": "Point",
        "coordinates": [
          2.189471,
          44.968276
        ]
      },
      "properties": {
        "name": "Gîte de groupe de Laroquebrou",
        "description": "Gîte de groupe de 13 couchages aménagé dans un ancien presbytère, propriété de la commune."
      }
    },
    {
      "type": "Feature",
      "geometry": {
        "type": "Point",
        "coordinates": [
          2.710438,
          45.150297
        ]
      },
      "properties": {
        "name": "Gîte d'étape et de Séjour du Puy-Mary",
        "description": "Le gîte d’étape du Puy Mary \r\n\r\nune étape entre paysages sans pareil et activités sportives"
      }
    },
    {
      "type": "Feature",
      "geometry": {
        "type": "Point",
        "coordinates": [
          3.021465,
          44.724287
        ]
      },
      "properties": {
        "name": "Gîte \"Les Cailloux\"",
        "description": "Une maison chaleureuse, pour 12 personnes, au cœur du plateau de l'Aubrac.  Très moderne la maison a gardé son charme avec son style du 19e siècle. Excellente pour des vacances en famille et entre amis, repos assuré grâce à son calme et son grand jardin."
      }
    },
    {
      "type": "Feature",
      "geometry": {
        "type": "Point",
        "coordinates": [
          3.007107,
          44.820863
        ]
      },
      "properties": {
        "name": "La Maison de Gilbert - Gîte de groupe",
        "description": "Gîte pour les groupes pouvant accueillir jusqu'à 14 personnes maximum, parfait pour les vins d'honneur, enterrement de vie de jeune fille / garçon, repas de famille, anniversaires, cousinades, Noël, Jour de l'An..."
      }
    },
    {
      "type": "Feature",
      "geometry": {
        "type": "Point",
        "coordinates": [
          2.95038,
          44.809435
        ]
      },
      "properties": {
        "name": "Le Moulin des Templiers - Gîte de groupe",
        "description": "Gîte de groupe jusqu'à 12 personnes situé aux portes de l’Aubrac, à 10 km de Chaudes-Aigues en direction de Laguiole, à l’écart de la route."
      }
    },
    {
      "type": "Feature",
      "geometry": {
        "type": "Point",
        "coordinates": [
          2.583543,
          44.806884
        ]
      },
      "properties": {
        "name": "Gîte d'étape vélo rando",
        "description": "Le gîte communal de Vezels-Roussy, au sud-ouest du Cantal , vous accueille pour une nuit ou un séjour, seul, en famille ou entre amis, à la découverte du sud cantal et de l’Aveyron de leurs vallées et leurs montagnes."
      }
    },
    {
      "type": "Feature",
      "geometry": {
        "type": "Point",
        "coordinates": [
          2.666055,
          45.015652
        ]
      },
      "properties": {
        "name": "Gîte d'étape Par Monts et Cantal",
        "description": "Niché sur les hauteurs de Thiézac à 830m d'altitude avec accès direct sur le GR400, mon gîte d'étape vous accueillera dans un cadre chaleureux et familial avec vue sur les Monts du Cantal."
      }
    },
    {
      "type": "Feature",
      "geometry": {
        "type": "Point",
        "coordinates": [
          2.792883,
          45.05248
        ]
      },
      "properties": {
        "name": "Gîte d'étape au Col de Prat de Bouc - Plomb du Cantal",
        "description": "Ce gite sur le GR400, GR4 , GTMC accueille randonneurs, vététistes, cyclo sportifs, cavaliers et propose sa formule demi-pension en Buron, pique-nique..."
      }
    },
    {
      "type": "Feature",
      "geometry": {
        "type": "Point",
        "coordinates": [
          2.938997,
          45.219069
        ]
      },
      "properties": {
        "name": "Gite d'étape communal d'Allanche",
        "description": "Gîte d'étape d'une capacité de 12 personnes au dessus de l'accueil du camping. 1 dortoir de 6 places et 3 chambres de 2 personnes\r\nTout confort. Hébergement sur le tour des vaches rouges OUVERT A L'ANNEE"
      }
    },
    {
      "type": "Feature",
      "geometry": {
        "type": "Point",
        "coordinates": [
          3.113753,
          45.277961
        ]
      },
      "properties": {
        "name": "Jean Marc Morel - Gite étape",
        "description": "Maison individuelle dans un petit village de 7 maisons habitées"
      }
    },
    {
      "type": "Feature",
      "geometry": {
        "type": "Point",
        "coordinates": [
          2.715865,
          45.058471
        ]
      },
      "properties": {
        "name": "La Grange du Devezou",
        "description": "Amateurs de calme et de plein air, la Grange du Dévezou, située à St Jacques des Blats (7 km du Lioran) au coeur du parc des Volcans d'Auvergne, vous offre un accès privilégié à la montagne."
      }
    },
    {
      "type": "Feature",
      "geometry": {
        "type": "Point",
        "coordinates": [
          2.209279,
          44.714942
        ]
      },
      "properties": {
        "name": "Gîte de Groupe Saint-Estèfe",
        "description": "Avec ses 16 couchages, intégrant 2 modules d'hébergement de 8 couchages chacun, deux salles de bains, une partie commune équipée d'une cuisine, une salle à manger et un espace détente pour se relaxer,"
      }
    },
    {
      "type": "Feature",
      "geometry": {
        "type": "Point",
        "coordinates": [
          2.933406,
          45.154494
        ]
      },
      "properties": {
        "name": "Chali Marie",
        "description": "Gite d' étape de groupe pouvant accueillir 30 personnes idéal pour les réunions de famille, les colonies, les groupes."
      }
    },
    {
      "type": "Feature",
      "geometry": {
        "type": "Point",
        "coordinates": [
          3.178515,
          44.970442
        ]
      },
      "properties": {
        "name": "Domaine du Viaduc",
        "description": "Venez découvrir le Domaine du Viaduc à Garabit, son Bar, son restaurant et gite vous attendent dans un lieu calme chargé d'histoire."
      }
    },
    {
      "type": "Feature",
      "geometry": {
        "type": "Point",
        "coordinates": [
          2.666808,
          45.080106
        ]
      },
      "properties": {
        "name": "Gîte d'étape de Revel",
        "description": "Gîte nature 4 personnes à Mandailles-Saint-Julien – Vue imprenable sur les monts du Cantal."
      }
    },
    {
      "type": "Feature",
      "geometry": {
        "type": "Point",
        "coordinates": [
          2.300979,
          44.739845
        ]
      },
      "properties": {
        "name": "Auberge de Leynhac",
        "description": "À l'auberge de Leynhac, dans le centre du village, location de chambre pour deux personnes avec salle de douches et WC, salle commune avec coin repos et cuisine toute équipée (micro-onde, frigo, bouilloire, machine à café, plaque de cuisson, vaisselle)."
      }
    }
  ]
}