{
  "type": "FeatureCollection",
  "features": [
    {
      "type": "Feature",
      "geometry": {
        "type": "Point",
        "coordinates": [
          2.2062,
          44.717
        ]
      },
      "properties": {
        "name": "Gîte Hôtel Restaurant CRUZEL",
        "description": "Nouveautés au Complexe Hôtelier Gîte Hôtel Restaurant Cruzel !"
      }
    },
    {
      "type": "Feature",
      "geometry": {
        "type": "Point",
        "coordinates": [
          2.419119,
          44.644474
        ]
      },
      "properties": {
        "name": "Hôtel La Terrasse",
        "description": "L'hôtel La Terrasse est situé au cœur du petit village de Vieillevie, en bordure de la rivière Lot, à l'extrême sud du département du Cantal."
      }
    },
    {
      "type": "Feature",
      "geometry": {
        "type": "Point",
        "coordinates": [
          2.500758,
          44.708274
        ]
      },
      "properties": {
        "name": "Hôtel L'Auberge Fleurie",
        "description": "L' Auberge Fleurie est une charmante étape aux confins du Lot et la Truyère."
      }
    },
    {
      "type": "Feature",
      "geometry": {
        "type": "Point",
        "coordinates": [
          2.693085,
          45.246611
        ]
      },
      "properties": {
        "name": "Auberge le Cheylet",
        "description": "Petit hôtel familial de 7 chambres spacieuses avec salle de bain et sanitaire privatif. Situé au pied du Puy Mary et disposant d'un restaurant traditionnel dans l'établissement."
      }
    },
    {
      "type": "Feature",
      "geometry": {
        "type": "Point",
        "coordinates": [
          2.659346,
          45.281492
        ]
      },
      "properties": {
        "name": "Hôtel Le Saint-Georges",
        "description": "Hôtel Saint Georges, un équipement moderne dans une bâtisse du 19ème siècle."
      }
    },
    {
      "type": "Feature",
      "geometry": {
        "type": "Point",
        "coordinates": [
          2.655208,
          45.284288
        ]
      },
      "properties": {
        "name": "The Originals Hôtel le Lutéa",
        "description": "Hôtel climatisé avec possibilité de restauration pour la clientèle de hôtel. Vous nous trouverez dans le Parc Naturel des volcans d'Auvergne dans la petite ville de Riom-ès-Montagnes."
      }
    },
    {
      "type": "Feature",
      "geometry": {
        "type": "Point",
        "coordinates": [
          2.716689,
          45.209705
        ]
      },
      "properties": {
        "name": "Grand Hôtel de la Vallée",
        "description": "Situé en plein cœur du Parc Naturel des Volcans d'Auvergne, l'hôtel vous accueille dans un esprit de convivialité et de bonne humeur."
      }
    },
    {
      "type": "Feature",
      "geometry": {
        "type": "Point",
        "coordinates": [
          2.438953,
          45.090428
        ]
      },
      "properties": {
        "name": "Auberge des Volcans",
        "description": "Dans l'enceinte d'une auberge, au cœur d'un bourg très calme, 6 chambres."
      }
    },
    {
      "type": "Feature",
      "geometry": {
        "type": "Point",
        "coordinates": [
          2.495458,
          45.13915
        ]
      },
      "properties": {
        "name": "Le Bailliage",
        "description": "Situé aux portes de la cité sagranière, propose 23 chambres, une table bistronomique réputée avec sa terrasse ouverte sur le jardin, une salle de séminaire, un spa et une piscine extérieure chauffée en été."
      }
    },
    {
      "type": "Feature",
      "geometry": {
        "type": "Point",
        "coordinates": [
          2.493892,
          45.136492
        ]
      },
      "properties": {
        "name": "Les Remparts",
        "description": "Surplombant la vallée de la Maronne, l'établissement fait face au plus vaste volcan d'Europe depuis maintenant 3 générations. Il est doté de 15 chambres spacieuses, une cuisine régionale soignée, un spa, une terrasse panoramique ouverte sur la campagne."
      }
    },
    {
      "type": "Feature",
      "geometry": {
        "type": "Point",
        "coordinates": [
          2.623259,
          45.1547
        ]
      },
      "properties": {
        "name": "Les Voyageurs",
        "description": "11 chambres (certaines avec vue sur le Puy Mary) toutes équipées d'une salle de bain avec WC, TV - LL à disposition - chaise et lit bébé - WIFI - Terrasse panoramique sur le Puy Mary, bar - Restaurant - Accueil individuel et groupe. Situé sur le GR400."
      }
    },
    {
      "type": "Feature",
      "geometry": {
        "type": "Point",
        "coordinates": [
          2.48364,
          45.053568
        ]
      },
      "properties": {
        "name": "Auberge de Tournemire",
        "description": "5 chambres au coeur du joli village de Tournemire classé parmi les plus beaux villages de France. Dont 3 chambres (studios) avec kitchenette."
      }
    },
    {
      "type": "Feature",
      "geometry": {
        "type": "Point",
        "coordinates": [
          2.494256,
          45.138323
        ]
      },
      "properties": {
        "name": "Le Beffroi",
        "description": "Au coeur de la Cité médiévale de Salers, l'Hôtel Le Beffroi vous accueille dans cadre chaleureux au charme authentique. Accès direct à la Porte du Beffroi et à la Place Tyssandier D'Escous par une rue piétonne."
      }
    },
    {
      "type": "Feature",
      "geometry": {
        "type": "Point",
        "coordinates": [
          2.427571,
          45.114882
        ]
      },
      "properties": {
        "name": "La Source du Mont",
        "description": "13 chambres toutes équipées SB, wc, TV, téléphone, accès internet dont 1 appartement 2 pièces - Maison de caractère entourée d'un grand parc - WIFI - Piscine."
      }
    },
    {
      "type": "Feature",
      "geometry": {
        "type": "Point",
        "coordinates": [
          2.53408,
          45.436875
        ]
      },
      "properties": {
        "name": "Hôtel Delmas",
        "description": "Aucune description."
      }
    },
    {
      "type": "Feature",
      "geometry": {
        "type": "Point",
        "coordinates": [
          2.683864,
          44.95048
        ]
      },
      "properties": {
        "name": "L'Auberge des Montagnes",
        "description": "Les « Maisons de Montagne » : 3 maisons de charme qui allient authenticité, confort et modernité. Laissez vous séduire par la chaleur du bois et la douceur de vivre à « l’Auberge des Montagnes ».\r\nLabellisé Qualité Auvergne"
      }
    },
    {
      "type": "Feature",
      "geometry": {
        "type": "Point",
        "coordinates": [
          2.632041,
          44.976464
        ]
      },
      "properties": {
        "name": "Bel Horizon",
        "description": "Eté comme hiver, pour une étape professionnelle, une escapade ou un long séjour, descendez au Bel Horizon.  Ses chambres confortables s’ouvrent sur la vallée de la Cère et sur les sommets cantaliens."
      }
    },
    {
      "type": "Feature",
      "geometry": {
        "type": "Point",
        "coordinates": [
          2.71171,
          45.052473
        ]
      },
      "properties": {
        "name": "Le Brunet",
        "description": "L'hôtel Le Brunet et un complexe alpin idéalement situé pour les sports d'hiver, la randonnée... Des chambres confortables aux larges balcons s'ouvrant sur les Monts du Cantal. Un parc agréable pour de vrais moments de repos."
      }
    },
    {
      "type": "Feature",
      "geometry": {
        "type": "Point",
        "coordinates": [
          2.63478,
          44.978625
        ]
      },
      "properties": {
        "name": "Hôtel des Bains",
        "description": "Dans un grand parc de plus de 4000m², l'Hôtel des Bains offre un confort de qualité. Toutes les chambres ont vue sur les montagnes. Plusieurs salons à disposition. Piscine et espace bien être couvert."
      }
    },
    {
      "type": "Feature",
      "geometry": {
        "type": "Point",
        "coordinates": [
          2.665099,
          45.01438
        ]
      },
      "properties": {
        "name": "L'Elancèze",
        "description": "Dans un  paisible village, entre les sites \"Chaos de Casteltinet, Pas des Rocs et  Elancèze\", cet hôtel d'architecture moderne, aux chambres spacieuses et d’un bon rapport qualité prix, offre une pause idéale pour les randonneurs et amoureux de la nature."
      }
    },
    {
      "type": "Feature",
      "geometry": {
        "type": "Point",
        "coordinates": [
          2.686619,
          44.952283
        ]
      },
      "properties": {
        "name": "Les Maisons de Montagne - Chez Marie",
        "description": "Découvrez un petit coin de paradis : \"Chez Marie \" un lieu immergé dans la nature avec authenticité, confort et modernité.  Une véritable invitation au bonheur et à la rêverie… Une offre complète avec des chambres, des suites apparts et des lofts."
      }
    },
    {
      "type": "Feature",
      "geometry": {
        "type": "Point",
        "coordinates": [
          2.711,
          45.051
        ]
      },
      "properties": {
        "name": "Appart'Hôtel Le Griou",
        "description": "Notre établissement « Appart'Hôtel Le Griou » est situé à 1000 m d'altitude dans le charmant village de Saint Jacques des Blats, au pied des volcans de notre cher Cantal et à deux pas de la station de ski du Lioran."
      }
    },
    {
      "type": "Feature",
      "geometry": {
        "type": "Point",
        "coordinates": [
          2.581497,
          44.951094
        ]
      },
      "properties": {
        "name": "Le Val du Cantal",
        "description": "VillageFani innove et développe un nouveau concept : Hébergement et Restauration 24h/24"
      }
    },
    {
      "type": "Feature",
      "geometry": {
        "type": "Point",
        "coordinates": [
          2.626635,
          44.979149
        ]
      },
      "properties": {
        "name": "Le Beauséjour",
        "description": "Un excellent niveau de confort, des chambres spacieuses, un personnel avenant et efficace, l’Hôtel Beauséjour vous donnera envie de prolonger votre séjour ! C’est l’occasion rêvée pour profiter d’un instant de repos."
      }
    },
    {
      "type": "Feature",
      "geometry": {
        "type": "Point",
        "coordinates": [
          2.619456,
          44.975263
        ]
      },
      "properties": {
        "name": "Family Hôtel",
        "description": "Eté, Hiver, Le Logis Family-Hôtel vous accueille en famille, en groupe avec des séjours hôtel demi-pension/pension complète ou locatif en cottages. A votre disposition, 2 piscines chauffées :  intérieure et extérieure, jacuzzi, parc : tennis, boulodrome."
      }
    },
    {
      "type": "Feature",
      "geometry": {
        "type": "Point",
        "coordinates": [
          2.612143,
          44.874626
        ]
      },
      "properties": {
        "name": "L'Auberge de la Sapinière",
        "description": "L’auberge de la Sapinière propose ses 3 chambres rénovées, charmantes et calmes, pour des séjours paisibles et gourmands au cœur du village de Cros de Ronesque."
      }
    },
    {
      "type": "Feature",
      "geometry": {
        "type": "Point",
        "coordinates": [
          2.713355,
          45.049012
        ]
      },
      "properties": {
        "name": "L'Escoundillou",
        "description": "Niché au coeur du Parc Naturel Régional des Volcans d'Auvergne, sur le chemin de St Jacques de Compostelle, à 5 min du Lioran, plus grand domaine skiable du Massif Central, au pied des célèbres \"Plomb du Cantal et \"Puy Griou\"."
      }
    },
    {
      "type": "Feature",
      "geometry": {
        "type": "Point",
        "coordinates": [
          2.631837,
          44.974848
        ]
      },
      "properties": {
        "name": "Le Saint Joseph",
        "description": "Gilles et Jessica vous accueilleront dans cet hôtel familial (7 chambres), posé sur une parcelle de 850 m², avec une esplanade offrant une belle vue sur la vallée et les montagnes."
      }
    },
    {
      "type": "Feature",
      "geometry": {
        "type": "Point",
        "coordinates": [
          2.718902,
          45.069581
        ]
      },
      "properties": {
        "name": "Les Chazes",
        "description": "L'hôtel des Chazes vous propose des chambres ou duplex tout confort avec vue sur le Plomb du Cantal."
      }
    },
    {
      "type": "Feature",
      "geometry": {
        "type": "Point",
        "coordinates": [
          2.671566,
          45.015848
        ]
      },
      "properties": {
        "name": "Le Castel du Cantal",
        "description": "Idéalement situé sur la N122, à 25 km d'Aurillac, la capitale du Cantal et 12 km du Lioran, la station de ski  du plus grand volcan d'Europe , le Castel du Cantal, entièrement rénové en 2024,  vous accueille  24h/24  dans des chambres au confort moderne."
      }
    },
    {
      "type": "Feature",
      "geometry": {
        "type": "Point",
        "coordinates": [
          2.655347,
          44.899394
        ]
      },
      "properties": {
        "name": "Auberge de Raulhac",
        "description": "Depuis 2010, Annick et François vous accueillent avec simplicité et convivialité dans leur auberge."
      }
    },
    {
      "type": "Feature",
      "geometry": {
        "type": "Point",
        "coordinates": [
          2.446775,
          44.912943
        ]
      },
      "properties": {
        "name": "Hôtel Ibis",
        "description": "Confort, moderne, ambiance chaleureuse, séjour sans stress au cœur du Cantal !"
      }
    },
    {
      "type": "Feature",
      "geometry": {
        "type": "Point",
        "coordinates": [
          2.433815,
          44.924794
        ]
      },
      "properties": {
        "name": "La Thomasse",
        "description": "A 15 minutes du centre historique d’Aurillac, dans un quartier résidentiel empreint de quiétude, l’hôtel La Thomasse dévoile ses atouts."
      }
    },
    {
      "type": "Feature",
      "geometry": {
        "type": "Point",
        "coordinates": [
          2.55964,
          45.016692
        ]
      },
      "properties": {
        "name": "Le Lac des Graves",
        "description": "L’Hôtel le Lac des Graves*** se situe au cœur d’un parc de 40 ha. dans la vallée de la Jordanne à 15 minutes d’Aurillac, à 25 mn du Puy Mary et à 1h de Salers."
      }
    },
    {
      "type": "Feature",
      "geometry": {
        "type": "Point",
        "coordinates": [
          2.455775,
          44.913462
        ]
      },
      "properties": {
        "name": "Hôtel B&B Aurillac - Le Lioran",
        "description": "Anciennement Hôtel Auréna, et situé à la sortie d'Aurillac sur la route de la station du Lioran, cette ancienne fabrique de parapluie donne à l'hôtel B&B Aurillac-Le Lioran sa structure atypique."
      }
    },
    {
      "type": "Feature",
      "geometry": {
        "type": "Point",
        "coordinates": [
          2.444263,
          44.911224
        ]
      },
      "properties": {
        "name": "Hôtel Le Relax",
        "description": "Hôtel familial situé en périphérie de la ville d'Aurillac dans la zone commerciale de la Ponétie, à proximité des grandes enseignes (accessibles à pied)."
      }
    },
    {
      "type": "Feature",
      "geometry": {
        "type": "Point",
        "coordinates": [
          2.512179,
          44.890622
        ]
      },
      "properties": {
        "name": "Château de Salles",
        "description": "Château de Salles – Nuitée d’exception au cœur du Cantal!\r\nÀ 10 minutes d’Aurillac, le Château de Salles vous ouvre les portes de ses chambres et suites de charme, nichées dans un domaine du XVe siècle entouré d’un parc de 8 hectares."
      }
    },
    {
      "type": "Feature",
      "geometry": {
        "type": "Point",
        "coordinates": [
          2.653885,
          45.067701
        ]
      },
      "properties": {
        "name": "Aux Genêts d'Or",
        "description": "Dernier hôtel en haut de la vallée de la Jordanne, avant le célèbre grand site du Puy Mary."
      }
    },
    {
      "type": "Feature",
      "geometry": {
        "type": "Point",
        "coordinates": [
          2.443094,
          44.92676
        ]
      },
      "properties": {
        "name": "Hôtel des Carmes",
        "description": "En plein centre-ville d’Aurillac, l’Hôtel des Carmes dépoussière les codes du savoir recevoir."
      }
    },
    {
      "type": "Feature",
      "geometry": {
        "type": "Point",
        "coordinates": [
          2.443886,
          44.913753
        ]
      },
      "properties": {
        "name": "Le Campanile",
        "description": "Votre hôtel-restaurant Campanile*** vous accueille dans son cadre reposant et ouvert sur la nature."
      }
    },
    {
      "type": "Feature",
      "geometry": {
        "type": "Point",
        "coordinates": [
          2.447119,
          44.928592
        ]
      },
      "properties": {
        "name": "The Originals Boutique, Grand Hôtel Saint Pierre",
        "description": "En plein centre-ville d’Aurillac, au pied des monts du Cantal, le Grand Hôtel Saint-Pierre vous accueille tout au long de l’année pour vous offrir une expérience unique dans une atmosphère chaleureuse."
      }
    },
    {
      "type": "Feature",
      "geometry": {
        "type": "Point",
        "coordinates": [
          2.658207,
          45.071853
        ]
      },
      "properties": {
        "name": "L'Enclos du Puy Mary",
        "description": "Situé au coeur du Grand Site du Puy Mary, Sylvie et Michel vous accueillent à l'Enclos dans un cadre authentique."
      }
    },
    {
      "type": "Feature",
      "geometry": {
        "type": "Point",
        "coordinates": [
          2.582268,
          45.028266
        ]
      },
      "properties": {
        "name": "Les Tilleuls",
        "description": "Laurent Fritsch dirige avec son épouse Mylène, cet hôtel familial de 14 chambres, décorées avec goût, agréables, et toutes différentes."
      }
    },
    {
      "type": "Feature",
      "geometry": {
        "type": "Point",
        "coordinates": [
          2.420874,
          44.987719
        ]
      },
      "properties": {
        "name": "Le Prado",
        "description": "Situé sur la route des sites les plus touristiques du Cantal (Puy Mary, Salers, Tournemire…),"
      }
    },
    {
      "type": "Feature",
      "geometry": {
        "type": "Point",
        "coordinates": [
          2.583789,
          44.807741
        ]
      },
      "properties": {
        "name": "La Bergerie",
        "description": "Dans un village typique du Cantal, Vezels-Roussy (20 km d'Aurillac), Céline et Marcel vous accueillent à la Bergerie** dans un cadre familial et authentique."
      }
    },
    {
      "type": "Feature",
      "geometry": {
        "type": "Point",
        "coordinates": [
          2.442859,
          44.927878
        ]
      },
      "properties": {
        "name": "Le Renaissance",
        "description": "Situé en plein centre ville, votre hôtel restaurant, rénové en 2021 dispose de chambre doubles, twins et familiales, jusqu’à 5 personnes."
      }
    },
    {
      "type": "Feature",
      "geometry": {
        "type": "Point",
        "coordinates": [
          2.442048,
          44.928177
        ]
      },
      "properties": {
        "name": "Grand Hôtel de Bordeaux",
        "description": "Le Grand Hôtel de Bordeaux est riche de son expérience et d’un personnel soucieux de satisfaire chacun de ses hôtes."
      }
    },
    {
      "type": "Feature",
      "geometry": {
        "type": "Point",
        "coordinates": [
          2.442945,
          44.92781
        ]
      },
      "properties": {
        "name": "Square Hôtel",
        "description": "Hôtel situé en centre-ville, proche tous commerces, banques, cinéma, théâtre, gare, hôpital, taxi."
      }
    },
    {
      "type": "Feature",
      "geometry": {
        "type": "Point",
        "coordinates": [
          2.263181,
          44.922965
        ]
      },
      "properties": {
        "name": "Hôtel du Lac",
        "description": "Situé au calme dans un cadre verdoyant et à proximité du Lac Saint Etienne Cantalès."
      }
    },
    {
      "type": "Feature",
      "geometry": {
        "type": "Point",
        "coordinates": [
          2.421679,
          44.909388
        ]
      },
      "properties": {
        "name": "The Originals Hotel Access Aeroport",
        "description": "Profitez d’une paisible halte entourée par la gastronomie, la culture et la nature d’Aurillac et du Cantal. \r\n\"Notre mission est de vous assurer un séjour en toute tranquillité, agrémenté de chaleureux conseils pour visiter la région.\""
      }
    },
    {
      "type": "Feature",
      "geometry": {
        "type": "Point",
        "coordinates": [
          3.057169,
          45.18304
        ]
      },
      "properties": {
        "name": "Hôtel-restaurant Les Voyageurs",
        "description": "Hôtel-restaurant au cœur du village de Ferrières Saint-Mary, dans la vallée de l'Alagnon reliant les Monts du Cantal à Massiac."
      }
    },
    {
      "type": "Feature",
      "geometry": {
        "type": "Point",
        "coordinates": [
          3.10132,
          45.036792
        ]
      },
      "properties": {
        "name": "Brit Hotel",
        "description": "Que vous veniez seul ou à deux, en couple ou en famille, le Brit Hotel** à Saint-Flour vous propose des chambres adaptées et confortables, en alliant service soigné de qualité et prix abordables."
      }
    },
    {
      "type": "Feature",
      "geometry": {
        "type": "Point",
        "coordinates": [
          3.090407,
          45.032964
        ]
      },
      "properties": {
        "name": "Hôtel du Nord",
        "description": "Hôtel situé en plein cœur du centre historique avec une agréable terrasse en été. Les parties communes, bar et salle de petit-déjeuner sont décorée dans le style art nouveau, pour une ambiance florale et colorée."
      }
    },
    {
      "type": "Feature",
      "geometry": {
        "type": "Point",
        "coordinates": [
          3.171787,
          44.973481
        ]
      },
      "properties": {
        "name": "Garabit Hôtel",
        "description": "Cadre exceptionnel, à 5 min de l’A75 au pied du Viaduc de Garabit. Piscine. 20 chambres ont été rénovées. 2 Chambres PMR. \r\nGroupes : Accueil traditionnel par du personnel. \r\nIndividuels : Accueil automatisé avec code. Concept d'hôtel sans accueil physique."
      }
    },
    {
      "type": "Feature",
      "geometry": {
        "type": "Point",
        "coordinates": [
          3.196077,
          45.264164
        ]
      },
      "properties": {
        "name": "Hôtel La Colombière",
        "description": "Hôtel tout confort, accueillant, chambres modernes et confortables, en bordure de l'A75, idéal pour les soirées étapes. Très belle terrasse donnant sur un parc longeant la rivière. Salle de bain privative pour toutes les chambres."
      }
    },
    {
      "type": "Feature",
      "geometry": {
        "type": "Point",
        "coordinates": [
          3.166877,
          44.979436
        ]
      },
      "properties": {
        "name": "Le Panoramic Garabit",
        "description": "Bienvenue à l’hôtel Le Panoramic Garabit, l’adresse incontournable de Garabit pour vivre une expérience entre horizon, nature et patrimoine"
      }
    },
    {
      "type": "Feature",
      "geometry": {
        "type": "Point",
        "coordinates": [
          3.102329,
          45.033517
        ]
      },
      "properties": {
        "name": "Hôtel l'Etape",
        "description": "Situé dans la ville basse de Saint-Flour, le Grand Hôtel l'Etape est un hôtel-restaurant 3 étoiles alliant confort moderne et charme authentique.\r\nIl offre à ses hôtes un cadre chaleureux et élégant, idéal pour un séjour agréable et reposant."
      }
    },
    {
      "type": "Feature",
      "geometry": {
        "type": "Point",
        "coordinates": [
          2.803,
          44.9226
        ]
      },
      "properties": {
        "name": "Hôtel-Restaurant de la Poste",
        "description": "Hôtel** - Restaurant, commerce de famille centenaire au sein de la Vallée de Brezons."
      }
    },
    {
      "type": "Feature",
      "geometry": {
        "type": "Point",
        "coordinates": [
          3.187001,
          45.164599
        ]
      },
      "properties": {
        "name": "Auberge de l'Allagnonette",
        "description": "Les gérants vous accueillent dans leur établissent , bâtiment de caractère situé au cœur d'un petit village, proche d'une rivière, avec terrasse agréable. Chambres tout confort pour deux à quatre personnes. Une carte avec des produits locaux et de saison."
      }
    },
    {
      "type": "Feature",
      "geometry": {
        "type": "Point",
        "coordinates": [
          2.83685,
          44.921412
        ]
      },
      "properties": {
        "name": "Hotel du Midi",
        "description": "Hôtel Logis de France avec restaurant gastronomique classé Table gourmande."
      }
    },
    {
      "type": "Feature",
      "geometry": {
        "type": "Point",
        "coordinates": [
          3.135295,
          45.008335
        ]
      },
      "properties": {
        "name": "Hôtel et Spa Le Bout du Monde",
        "description": "L'Hôtel Spa \"Le Bout du Monde\" est situé à 10 mn. de St-Flour dans le Cantal (et à 10 min. de l'A75). Blotti dans une petite vallée près de la rivière à truites \"l'Ander\", on y accède par une petite route bordée d'arbres."
      }
    },
    {
      "type": "Feature",
      "geometry": {
        "type": "Point",
        "coordinates": [
          3.106783,
          45.034555
        ]
      },
      "properties": {
        "name": "Hôtel des Messageries",
        "description": "Hôtel de charme dans quartier calme près de la gare  - Vue sur Saint-Flour et le plateau verdoyant de la Chaumette.\r\nTraiteur et location de salles."
      }
    },
    {
      "type": "Feature",
      "geometry": {
        "type": "Point",
        "coordinates": [
          3.139343,
          45.030712
        ]
      },
      "properties": {
        "name": "Hôtel Cantal Cottages",
        "description": "L'hôtel Cantal Cottages vous propose une solution d'hébergement pratique pour rayonner dans le Cantal proche de Saint-Flour à la découverte de la Haute Auvergne."
      }
    },
    {
      "type": "Feature",
      "geometry": {
        "type": "Point",
        "coordinates": [
          3.146601,
          44.940539
        ]
      },
      "properties": {
        "name": "Hôtel Le Relais des Sites",
        "description": "Une étape conviviale dans un petit hôtel sur le circuit des Gorges de la Truyère. Calme et repos agrémentés des meilleures recettes de la cuisine auvergnate. 7 chambres de 2 à 4 pers. Douche et WC dans les chambres - 1 salle restaurant 50 couverts."
      }
    },
    {
      "type": "Feature",
      "geometry": {
        "type": "Point",
        "coordinates": [
          3.094572,
          45.033676
        ]
      },
      "properties": {
        "name": "Hôtel des Roches",
        "description": "Hôtel situé au coeur de la cité historique de Saint-Flour à proximité des commerces, de la cathédrale St Pierre. Une équipe jeune et dynamique vous accueille dans un cadre chaleureux en plein coeur de la cité médiévale face à la cathédrale."
      }
    },
    {
      "type": "Feature",
      "geometry": {
        "type": "Point",
        "coordinates": [
          3.165957,
          44.998838
        ]
      },
      "properties": {
        "name": "Hôtel La Méridienne",
        "description": "Situé au pied de la Margeride, et non loin du Viaduc de Garabit majestueux\r\nouvrage de Gustave Eiffel, l’hôtel-restaurant de la Méridienne, vous invite à venir profiter du calme de la nature et des plaisirs de la table."
      }
    },
    {
      "type": "Feature",
      "geometry": {
        "type": "Point",
        "coordinates": [
          3.003382,
          44.851247
        ]
      },
      "properties": {
        "name": "Hôtel du Ban",
        "description": "Intégré au centre thermal, l'hôtel du Ban vous permettra d'être à proximité des soins. Avec ses vastes chambres équipées tout confort, offrez vous un pur moment de détente."
      }
    },
    {
      "type": "Feature",
      "geometry": {
        "type": "Point",
        "coordinates": [
          3.000754,
          44.843887
        ]
      },
      "properties": {
        "name": "Relais et Châteaux Serge Vieira",
        "description": "Situé sur les hauteurs de Chaudes-Aigues dans le Cantal, le Château du Couffour propose un cadre à la fois naturel et contemporain, où les éléments se mêlent harmonieusement au béton et à l’acier Corten."
      }
    },
    {
      "type": "Feature",
      "geometry": {
        "type": "Point",
        "coordinates": [
          3.003617,
          44.85219
        ]
      },
      "properties": {
        "name": "Hôtel Beauséjour",
        "description": "Situé à quelques pas de l’établissement thermal et au centre du village."
      }
    },
    {
      "type": "Feature",
      "geometry": {
        "type": "Point",
        "coordinates": [
          2.998238,
          44.92762
        ]
      },
      "properties": {
        "name": "Hôtel Le Relais de La Poste",
        "description": "Nous vous réservons un accueil chaleureux dans un cadre rustique et rénové au cœur de la vallée de la Truyère."
      }
    },
    {
      "type": "Feature",
      "geometry": {
        "type": "Point",
        "coordinates": [
          2.7336,
          45.085452
        ]
      },
      "properties": {
        "name": "Le Buron de Font de Cère",
        "description": "Au Col de Font de Cère, auberge rustique avec cheminée, ambiance familiale et chaleureuse."
      }
    },
    {
      "type": "Feature",
      "geometry": {
        "type": "Point",
        "coordinates": [
          2.805358,
          45.115434
        ]
      },
      "properties": {
        "name": "Hôtel Bellevue",
        "description": "Au cœur du village de Laveissière, à mi-chemin entre Murat et la station du Lioran, à 5 min des pistes de ski, Anne-Sophie et Gaëtan vous accueillent dans leur gîte-hôtel de montagne face au plan d'eau."
      }
    },
    {
      "type": "Feature",
      "geometry": {
        "type": "Point",
        "coordinates": [
          2.750927,
          45.08312
        ]
      },
      "properties": {
        "name": "Hôtel - Restaurant Le Rocher du Cerf",
        "description": "L'hôtel du Rocher du Cerf est idéalement situé en plein cœur de la station du Lioran, au pied du domaine skiable et des chemins pédestres."
      }
    },
    {
      "type": "Feature",
      "geometry": {
        "type": "Point",
        "coordinates": [
          2.335947,
          45.219367
        ]
      },
      "properties": {
        "name": "L'Ecu de France",
        "description": "Dans un cadre plein de charme découvrez notre hôtel-restaurant Logis Cosy, établissement de caractère proche du centre ville, salon tout confort, bar avec écran géant, salle de petit déjeuner, 1 salle de restaurant et 1 salle restau-véranda."
      }
    },
    {
      "type": "Feature",
      "geometry": {
        "type": "Point",
        "coordinates": [
          2.33099,
          45.219367
        ]
      },
      "properties": {
        "name": "Le Saint-Mary",
        "description": "Charmant hôtel, tranquillité et calme, à quelques pas du cœur historique, du lac Val Saint-Jean et du golf. 7 chambres toutes équipées, salle d'eau, wc, TV, salle de restaurant de 50 couverts (accueil groupe)"
      }
    },
    {
      "type": "Feature",
      "geometry": {
        "type": "Point",
        "coordinates": [
          2.351782,
          44.781454
        ]
      },
      "properties": {
        "name": "Auberge de la Tour",
        "description": "Entre volcans d’Auvergne et douceur de la vallée du Lot, la Châtaigneraie offre son doux visage et ses beaux paysages ! Dans cet environnement privilégié, l’Auberge de la Tour au cœur de la Petite Cité de Caractère® de Marcolès, est une étape de charme."
      }
    },
    {
      "type": "Feature",
      "geometry": {
        "type": "Point",
        "coordinates": [
          2.498283,
          45.117753
        ]
      },
      "properties": {
        "name": "Auberge de l'Aspre",
        "description": "L'Auberge de l'Aspre est située dans le charmant village de Fontanges, dans la vallée de l'Aspre, à 5km de Salers et 25km du Puy Mary."
      }
    },
    {
      "type": "Feature",
      "geometry": {
        "type": "Point",
        "coordinates": [
          2.226834,
          45.133534
        ]
      },
      "properties": {
        "name": "Hôtel du Commerce",
        "description": "Installé dans le Pays de Salers en xaintrie cantalienne, l'Hôtel du Commerce vous propose un établissement moderne situé en plein centre de la petite cité de caractère de Pleaux..."
      }
    },
    {
      "type": "Feature",
      "geometry": {
        "type": "Point",
        "coordinates": [
          2.832327,
          45.078566
        ]
      },
      "properties": {
        "name": "Hôtel Bar Restaurant  Le Plomb du Cantal",
        "description": "Hôtel Bar Restaurant de caractère situé dans le joli village de montagne d'Albepierre-Bredons, à 6km de la station de ski familiale de Prat de Bouc, au pied du Plomb du Cantal, sur le parcours du GR400."
      }
    },
    {
      "type": "Feature",
      "geometry": {
        "type": "Point",
        "coordinates": [
          2.869395,
          45.109673
        ]
      },
      "properties": {
        "name": "Hostellerie du Cantal",
        "description": "L'Hostellerie du Cantal se situe à Murat séduisante cité médiévale de Haute Auvergne. 20 chambres tout confort à disposition. Salle de réception s'ouvrant sur jardin, espace spa et parking. Hébergement en toute liberté, hôtel sans contact, ouvert 24h/24."
      }
    },
    {
      "type": "Feature",
      "geometry": {
        "type": "Point",
        "coordinates": [
          2.974848,
          45.126109
        ]
      },
      "properties": {
        "name": "Hôtel des Voyageurs - Chez Betty",
        "description": "L'hôtel-restaurant des Voyageurs \"Chez Betty\" vous accueille dans ses 15 chambres rénovées. Un restaurant est à votre disposition proposant des spécialités régionales, pizzas et plat du jour."
      }
    },
    {
      "type": "Feature",
      "geometry": {
        "type": "Point",
        "coordinates": [
          2.882885,
          45.186782
        ]
      },
      "properties": {
        "name": "Instants d'Absolu - Ecolodge & spa",
        "description": "Goûtez au bonheur d'un bain de jouvence à fleur de lac... d'une cuisine de l'instant (menu surprise tel un voyage culinaire chaque jour), de chambres douillettes."
      }
    },
    {
      "type": "Feature",
      "geometry": {
        "type": "Point",
        "coordinates": [
          2.868535,
          45.109596
        ]
      },
      "properties": {
        "name": "Aux Globe Trotters",
        "description": "L'hôtel \"Aux Globe-Trotters\" situé au centre de Murat et juste en face de la gare dispose de 20 chambres confortables décorées dans un style campagnard."
      }
    },
    {
      "type": "Feature",
      "geometry": {
        "type": "Point",
        "coordinates": [
          2.933992,
          45.230159
        ]
      },
      "properties": {
        "name": "Le Relais des Remparts",
        "description": "En plein cœur du Cézallier, entre les vastes pâturages d’été et le massif Cantalien ou culminent le Puy Mary et le Plomb du Cantal, à 20 min de la station du Lioran, au centre d’Allanche, cité de l’estive..."
      }
    },
    {
      "type": "Feature",
      "geometry": {
        "type": "Point",
        "coordinates": [
          2.769318,
          45.33504
        ]
      },
      "properties": {
        "name": "Hôtel Le Lac des Moines",
        "description": "Hôtel-restaurant au bord d'un lac de 10 ha en l'entrée du bourg de Condat, entouré de forêts et verdure."
      }
    },
    {
      "type": "Feature",
      "geometry": {
        "type": "Point",
        "coordinates": [
          3.003134,
          44.697868
        ]
      },
      "properties": {
        "name": "Hôtel restaurant \"Chez Remise\"",
        "description": "Un hôtel de village au coeur de l’Aubrac (à 22 km de Chaudes-Aigues)."
      }
    },
    {
      "type": "Feature",
      "geometry": {
        "type": "Point",
        "coordinates": [
          3.176723,
          44.972237
        ]
      },
      "properties": {
        "name": "Hôtel Le Beau Site",
        "description": "Une étape ou séjour face au Viaduc de Garabit.\r\nUn hôtel 3 * et un restaurant gastronomique à 10 min de l'A 75. Vue imprenable sur le viaduc de Gustave Eiffel, illuminé en soirée. Label Restaurant Savoureux.\r\nChambres confort, supérieure et suites junior."
      }
    },
    {
      "type": "Feature",
      "geometry": {
        "type": "Point",
        "coordinates": [
          3.003302,
          44.851623
        ]
      },
      "properties": {
        "name": "Hôtel restaurant Sodade",
        "description": "L’Hôtel & Restaurant SODADE est le second établissement des maisons Vieira, récompensé d’un Bib Gourmand par le Guide Michelin."
      }
    },
    {
      "type": "Feature",
      "geometry": {
        "type": "Point",
        "coordinates": [
          2.31386,
          44.815294
        ]
      },
      "properties": {
        "name": "Auberge La Tomette - Hôtel",
        "description": "Vous êtes au coeur de la Châtaigneraie, entre Quercy et monts d'Auvergne, à 25 km au sud d'Aurillac. Nichée à mi-colline dans un cadre de verdure, l'Auberge La Tomette vous accueille à Vitrac, dans le Cantal."
      }
    },
    {
      "type": "Feature",
      "geometry": {
        "type": "Point",
        "coordinates": [
          2.381725,
          44.933848
        ]
      },
      "properties": {
        "name": "Maxotel",
        "description": "Notre hôtel MAXOTEL, situé à Ytrac près d'Aurillac, vous accueille du Lundi au dimanche avec ses 10 chambres toutes équipées de : salle de bain privative, télévision écran plat, accès WIFI gratuit & illimité."
      }
    },
    {
      "type": "Feature",
      "geometry": {
        "type": "Point",
        "coordinates": [
          2.5002,
          45.147
        ]
      },
      "properties": {
        "name": "La Bastide du Cantal",
        "description": "Sur la route du Puy Mary, dominant le Village de Salers, 25 chambres entièrement rénovées en 2020, dotées d’un confort moderne. Dans ce cadre paradisiaque, au grand calme, une piscine est à disposition. Elle sera chauffée en 2026"
      }
    },
    {
      "type": "Feature",
      "geometry": {
        "type": "Point",
        "coordinates": [
          3.198062,
          45.253845
        ]
      },
      "properties": {
        "name": "Les portes du Cantal",
        "description": "Situé à 1.5km de l'A75, l'Hôtel LES PORTES DU CANTAL, 36 chambres bien équipées,  offre à Massiac une étape  idéale : ouvert 24h/24, vous arrivez quand vous voulez, restauration 24h/24 en libre accès . Accueil téléphonique 24h/24. Piscine en été"
      }
    },
    {
      "type": "Feature",
      "geometry": {
        "type": "Point",
        "coordinates": [
          2.269762,
          45.244251
        ]
      },
      "properties": {
        "name": "Hostellerie de La Bruyère",
        "description": "A quelques minutes de la rivière Dordogne, cachée au milieu d'un parc de 5 hectares, l'Hostellerie de la Bruyère est une invitation à séjourner dans un lieu où l'atmosphère rime avec zénitude, à l'ombre de séquoias plus que centenaires."
      }
    },
    {
      "type": "Feature",
      "geometry": {
        "type": "Point",
        "coordinates": [
          2.51313,
          45.456618
        ]
      },
      "properties": {
        "name": "Auberge Le Beaulieu (fermée temporairement)",
        "description": "Auberge au calme à proximité de la retenue du barrage de Bort-les-Orgues."
      }
    },
    {
      "type": "Feature",
      "geometry": {
        "type": "Point",
        "coordinates": [
          2.44228,
          44.929521
        ]
      },
      "properties": {
        "name": "Hôtel Zadig",
        "description": "Au cœur d’Aurillac, entrez dans un univers contemporain et chaleureux où se mélangent artisanat local et savoir-faire multiples afin de continuer votre voyage au sein même de l’hôtel Zadig.\r\nUn cadre, une ambiance, un service de qualité ... et une âme."
      }
    },
    {
      "type": "Feature",
      "geometry": {
        "type": "Point",
        "coordinates": [
          3.088077,
          45.031764
        ]
      },
      "properties": {
        "name": "Hôtel Restaurant de l'Ancien Grand Séminaire",
        "description": "Faites l'expérience unique d'un lieu de plus de 200 ans d'histoire. L'Hôtel Restaurant Ancien Grand Séminaire est un écrin de calme au coeur de la cité médiévale de Saint-Flour."
      }
    },
    {
      "type": "Feature",
      "geometry": {
        "type": "Point",
        "coordinates": [
          2.234303,
          44.855226
        ]
      },
      "properties": {
        "name": "Hôtel des Voyageurs",
        "description": "Dans le charmant village du Rouget, découvrez l'hôtel des Voyageurs, un établissement familial animé par une équipe jeune et dynamique."
      }
    },
    {
      "type": "Feature",
      "geometry": {
        "type": "Point",
        "coordinates": [
          2.208839,
          44.72005
        ]
      },
      "properties": {
        "name": "La Châtelleraie",
        "description": "La Châtelleraie vous ouvre grand les portes de son domaine : son hôtellerie, son restaurant, ses gîtes, ainsi que son parc ombragé et sa piscine extérieure."
      }
    },
    {
      "type": "Feature",
      "geometry": {
        "type": "Point",
        "coordinates": [
          2.482875,
          45.052214
        ]
      },
      "properties": {
        "name": "La Borie d'Hélipse",
        "description": "Un hôtel de charme au pied du village de Tournemire et dans l'esprit d'une maison de famille. L'excellence de l'hospitalité cantalienne à découvrir au travers de ses 12 chambres élégantes, son restaurant gastronomique et son spa."
      }
    },
    {
      "type": "Feature",
      "geometry": {
        "type": "Point",
        "coordinates": [
          2.752215,
          45.082286
        ]
      },
      "properties": {
        "name": "Le Bufadou",
        "description": "Le Bufadou est le premier Camp de Base sportif de moyenne montagne.\r\nAu cœur de la station, au départ des pistes de ski. Nous vous proposons 7 ch de 2 à 6 pers. Réservation directement en ligne."
      }
    },
    {
      "type": "Feature",
      "geometry": {
        "type": "Point",
        "coordinates": [
          2.870188,
          45.344171
        ]
      },
      "properties": {
        "name": "Auberge du Cézallier",
        "description": "L'auberge est un lieu sincère, chaleureux, joyeux et authentique."
      }
    },
    {
      "type": "Feature",
      "geometry": {
        "type": "Point",
        "coordinates": [
          2.644069,
          44.968254
        ]
      },
      "properties": {
        "name": "Maison Rouchet",
        "description": "Aucune description."
      }
    },
    {
      "type": "Feature",
      "geometry": {
        "type": "Point",
        "coordinates": [
          2.478531,
          45.334842
        ]
      },
      "properties": {
        "name": "Le Relais (Ouverture début 2027)",
        "description": "Hébergement de charme dans une demeure de caractère de la fin du XIXème siècle. Chambres confortables avec salle d'eau et toilettes privatives. Salle dédiée aux petits-déjeuners, dans une atmosphère chaleureuse et authentique."
      }
    }
  ]
}