{
  "type": "FeatureCollection",
  "features": [
    {
      "type": "Feature",
      "geometry": {
        "type": "Point",
        "coordinates": [
          2.783338,
          45.027995
        ]
      },
      "properties": {
        "name": "Les burons de la Tagadure - 22 personnes",
        "description": "Refuge de montagne, avec la magie d’un buron qui a su conserver son âme en cédant au raffinement du confort d’aujourd’hui. Choix entre le buron 16 pers., celui de 6 pers. ou le domaine complet. Du 15/11 au 31/03, location avec un guide professionnel."
      }
    },
    {
      "type": "Feature",
      "geometry": {
        "type": "Point",
        "coordinates": [
          2.723966,
          45.096716
        ]
      },
      "properties": {
        "name": "Le Refuge de Meije Costes",
        "description": "Dominant la station du Lioran, lové sur un promontoire sous la protection du Téton de Venus ce petit refuge de montagne,  ancien buron, a pour vocation aujourd'hui, d'accueillir tous les passagers des cimes."
      }
    }
  ]
}