{
  "type": "FeatureCollection",
  "features": [
    {
      "type": "Feature",
      "geometry": {
        "type": "Point",
        "coordinates": [
          2.212887,
          45.083945
        ]
      },
      "properties": {
        "name": "Village Vacances Camping Paradis - La Gineste",
        "description": "En bordure du Lac d'Enchanet, la Gineste vous propose un accueil familial dans une ambiance entre lac et nature."
      }
    },
    {
      "type": "Feature",
      "geometry": {
        "type": "Point",
        "coordinates": [
          2.188511,
          44.714233
        ]
      },
      "properties": {
        "name": "Domaine La Châtaigneraie",
        "description": "Dans le Sud Cantal, le Domaine de La Châtaigneraie vous accueille à Maurs, la \"Petite Nice du Cantal\"."
      }
    },
    {
      "type": "Feature",
      "geometry": {
        "type": "Point",
        "coordinates": [
          2.888538,
          45.347451
        ]
      },
      "properties": {
        "name": "Le Lac des Estives",
        "description": "Le domaine est situé dans un environnement préservé : entre estives, collines ondulantes et panoramas à couper le souffle.\r\n1 gîte 15pl, 1 chalet 10pl, 10 gîtes 6/7 pl, 6 chalets 4 pl, salle jeux, piscine couverte, lac de 3 ha."
      }
    },
    {
      "type": "Feature",
      "geometry": {
        "type": "Point",
        "coordinates": [
          2.716737,
          45.2065
        ]
      },
      "properties": {
        "name": "Naturessime Eco Village & Spa",
        "description": "Au pied du Puy Mary, Naturessime Éco Village et Spa labellisé Natitude  vous propose de venir vous ressourcer dans un espace naturel préservé."
      }
    },
    {
      "type": "Feature",
      "geometry": {
        "type": "Point",
        "coordinates": [
          2.586658,
          45.302898
        ]
      },
      "properties": {
        "name": "Village Vacances du Lac de Menet",
        "description": "Bienvenue en Auvergne dans notre village vacances au bord du lac naturel de Menet. Village de Menet, labellisé \"Petite Cité de Caractère\"."
      }
    },
    {
      "type": "Feature",
      "geometry": {
        "type": "Point",
        "coordinates": [
          2.388387,
          45.283416
        ]
      },
      "properties": {
        "name": "VVF Cantal Salers Vendes",
        "description": "A la frontière de l’Auvergne et du Limousin, le VVF Cantal Salers Vendes est un écrin de verdure avec une vue exceptionnelle sur les monts du Cantal."
      }
    },
    {
      "type": "Feature",
      "geometry": {
        "type": "Point",
        "coordinates": [
          2.565327,
          45.393294
        ]
      },
      "properties": {
        "name": "VVF Cantal Champs-sur-Tarentaine",
        "description": "A la frontière entre le Puy-de-Dôme, la Corrèze et le Cantal, le VVF Cantal Champs-sur-Tarentaine est situé à proximité de Bort-les-Orgues et de ses fameuses orgues basaltiques."
      }
    },
    {
      "type": "Feature",
      "geometry": {
        "type": "Point",
        "coordinates": [
          3.002295,
          44.894485
        ]
      },
      "properties": {
        "name": "Village vacances de Lanau",
        "description": "Sur deux hectares arborés offrant de vastes espaces, une vue sur les gorges de la Truyère, Cédric vous propose des gîtes confortables, bien équipés avec une literie de qualité, des installations fonctionnelles et une terrasse privative exposée plein sud."
      }
    },
    {
      "type": "Feature",
      "geometry": {
        "type": "Point",
        "coordinates": [
          2.736476,
          45.081285
        ]
      },
      "properties": {
        "name": "VVF Le Grand Lioran",
        "description": "Un village \"pleine forme\" au pied du plus étendu des stratovolcans d'Europe pour vivre pleinement la montagne en alliant le tonus et le bien-être à des activités de pleine nature. Un cadre idéal pour des vacances saines, actives et vivifiantes."
      }
    },
    {
      "type": "Feature",
      "geometry": {
        "type": "Point",
        "coordinates": [
          2.993731,
          44.842147
        ]
      },
      "properties": {
        "name": "VVF AUBRAC",
        "description": "Sur le plateau de l’Aubrac, le VVF Aubrac est situé à 3 km du centre de la plus méridionale des stations thermales d’Auvergne."
      }
    }
  ]
}